駅名,所要時間範囲,所要時間,乗り換え回数,路線名,駅名_cleaned,station_name,address,lon,lat,company,line_name
田町（東京都）,0-10分,4分,乗換0回,ＪＲ山手線,田町,田町,東京都港区芝五丁目33-36,139.747575,35.645736,ＪＲ,山手線
品川,0-10分,4分,乗換0回,ＪＲ山手線,品川,品川,東京都港区高輪三丁目26-27,139.738999,35.62876,ＪＲ,山手線
浜松町,0-10分,6分,乗換0回,ＪＲ山手線,浜松町,浜松町,東京都港区海岸一丁目3-1,139.757135,35.655391,ＪＲ,山手線
大崎,0-10分,7分,乗換0回,ＪＲ山手線,大崎,大崎,東京都品川区大崎一丁目21-4,139.728439,35.619772,ＪＲ,山手線
新橋,0-10分,8分,乗換0回,ＪＲ山手線,新橋,新橋,東京都港区新橋二丁目17,139.758587,35.666195,ＪＲ,山手線
五反田,0-10分,9分,乗換0回,ＪＲ山手線,五反田,五反田,東京都品川区東五反田一丁目26,139.723822,35.625974,ＪＲ,山手線
有楽町,0-10分,10分,乗換0回,ＪＲ山手線,有楽町,有楽町,東京都千代田区有楽町二丁目9,139.763806,35.675441,ＪＲ,山手線
大井町,0-10分,8分,乗換0回,ＪＲ京浜東北線,大井町,大井町,品川区大井１丁目,139.73485,35.606257,ＪＲ,京浜東北線
大森（東京都）,11-20分,11分,乗換0回,ＪＲ京浜東北線,大森,大森,大田区大森北１丁目,139.728079,35.588903,ＪＲ,京浜東北線
東京,11-20分,11分,乗換0回,ＪＲ京浜東北線,東京,東京,東京都千代田区丸の内一丁目,139.766103,35.681391,ＪＲ,京浜東北線
神田（東京都）,11-20分,13分,乗換0回,ＪＲ京浜東北線,神田,神田,東京都千代田区鍛冶町二丁目13-1,139.770641,35.691173,ＪＲ,京浜東北線
蒲田,11-20分,15分,乗換0回,ＪＲ京浜東北線,蒲田,蒲田,大田区蒲田５丁目,139.716032,35.562517,ＪＲ,京浜東北線
秋葉原,11-20分,15分,乗換0回,ＪＲ京浜東北線,秋葉原,秋葉原,東京都千代田区外神田一丁目17,139.773288,35.698619,ＪＲ,京浜東北線
上野,11-20分,17分,乗換0回,ＪＲ京浜東北線,上野,上野,東京都台東区上野七丁目1-1,139.777043,35.71379,ＪＲ,京浜東北線
川崎,11-20分,18分,乗換0回,ＪＲ京浜東北線,川崎,川崎,川崎市川崎区駅前本町,139.697485,35.531311,ＪＲ,京浜東北線
目黒,11-20分,11分,乗換0回,ＪＲ山手線,目黒,目黒,東京都品川区上大崎二丁目16-9,139.715775,35.633923,ＪＲ,山手線
恵比寿（東京都）,11-20分,13分,乗換0回,ＪＲ山手線,恵比寿,恵比寿,東京都渋谷区恵比寿南一丁目5-5,139.71007,35.646685,ＪＲ,山手線
渋谷,11-20分,16分,乗換0回,ＪＲ山手線,渋谷,渋谷,東京都渋谷区道玄坂一丁目1-1,139.701238,35.658871,ＪＲ,山手線
原宿,11-20分,18分,乗換0回,ＪＲ山手線,原宿,原宿,東京都渋谷区神宮前一丁目18,139.702592,35.670646,ＪＲ,山手線
御徒町,11-20分,18分,乗換0回,ＪＲ山手線,御徒町,御徒町,東京都台東区上野五丁目27,139.774727,35.707282,ＪＲ,山手線
高輪台,11-20分,12分,乗換0回,都営浅草線,高輪台,高輪台,港区白金台２-２６-７,139.730305,35.631679,都営,浅草線
戸越,11-20分,15分,乗換0回,都営浅草線,戸越,戸越,品川区戸越３-４-１７,139.716495,35.614633,都営,浅草線
中延,11-20分,17分,乗換0回,都営浅草線,中延,中延,品川区中延４-５-５,139.712526,35.60571,都営,浅草線
東銀座,11-20分,17分,乗換0回,都営浅草線,東銀座,東銀座,中央区銀座４-１２-１５,139.767253,35.669464,都営,浅草線
馬込,11-20分,19分,乗換0回,都営浅草線,馬込,馬込,大田区北馬込２-３１-９,139.711772,35.596435,都営,浅草線
宝町（東京都）,11-20分,19分,乗換0回,都営浅草線,宝町,宝町,中央区京橋２-１３-１１,139.771767,35.675461,都営,浅草線
北品川,11-20分,14分,乗換1回,京急本線,北品川,北品川,品川区北品川１-１-４,139.739191,35.622458,京急,本線
新馬場,11-20分,15分,乗換1回,京急本線,新馬場,新馬場,品川区北品川２-１８-１,139.741366,35.61762,京急,本線
青物横丁,11-20分,17分,乗換1回,京急本線,青物横丁,青物横丁,品川区南品川３-１-２０,139.742958,35.609351,京急,本線
鮫洲,11-20分,20分,乗換1回,京急本線,鮫洲,鮫洲,品川区東大井１-２-２０,139.742227,35.604977,京急,本線
下神明,11-20分,16分,乗換1回,東急大井町線,下神明,下神明,品川区西品川１-２９-６,139.726256,35.608704,東急,大井町線
戸越公園,11-20分,18分,乗換1回,東急大井町線,戸越公園,戸越公園,品川区戸越５-１０-１５,139.718159,35.608856,東急,大井町線
荏原町,11-20分,20分,乗換1回,東急大井町線,荏原町,荏原町,品川区中延５-２-１,139.707571,35.60382,東急,大井町線
銀座,11-20分,16分,乗換1回,東京メトロ銀座線,銀座,銀座,中央区銀座４-１-２,139.763965,35.671989,東京メトロ,銀座線
虎ノ門,11-20分,16分,乗換1回,東京メトロ銀座線,虎ノ門,虎ノ門,港区虎ノ門１-１-２１,139.749832,35.670236,東京メトロ,銀座線
京橋（東京都）,11-20分,17分,乗換1回,東京メトロ銀座線,京橋,京橋,中央区京橋２-２-１０,139.770126,35.676856,東京メトロ,銀座線
三越前,11-20分,18分,乗換1回,東京メトロ銀座線,三越前,三越前,中央区日本橋室町１-８-１,139.773594,35.687101,東京メトロ,銀座線
溜池山王,11-20分,18分,乗換1回,東京メトロ銀座線,溜池山王,溜池山王,千代田区永田町２-１１-１,139.741419,35.673621,東京メトロ,銀座線
日本橋（東京都）,11-20分,19分,乗換1回,東京メトロ銀座線,日本橋,日本橋,中央区日本橋１丁目,139.773516,35.682078,東京メトロ,銀座線
末広町（東京都）,11-20分,19分,乗換1回,東京メトロ銀座線,末広町,末広町,千代田区外神田４-７-３,139.771713,35.702972,東京メトロ,銀座線
上野広小路,11-20分,20分,乗換1回,東京メトロ銀座線,上野広小路,上野広小路,台東区上野３-２９-３,139.772877,35.70768,東京メトロ,銀座線
赤坂見附,11-20分,20分,乗換1回,東京メトロ銀座線,赤坂見附,赤坂見附,港区赤坂３-１-６,139.737047,35.677021,東京メトロ,銀座線
芝公園,11-20分,16分,乗換1回,都営三田線,芝公園,芝公園,港区芝公園４-８-１４,139.749824,35.654074,都営,三田線
御成門,11-20分,18分,乗換1回,都営三田線,御成門,御成門,港区西新橋３-２４-６,139.751535,35.661215,都営,三田線
白金高輪,11-20分,19分,乗換1回,都営三田線,白金高輪,白金高輪,港区高輪１-３-２０,139.734104,35.642903,都営,三田線
大崎広小路,11-20分,16分,乗換1回,東急池上線,大崎広小路,大崎広小路,品川区大崎４-１-１,139.722339,35.622244,東急,池上線
荏原中延,11-20分,19分,乗換1回,東急池上線,荏原中延,荏原中延,品川区中延２-８-１,139.712196,35.610056,東急,池上線
霞ヶ関（東京都）,11-20分,19分,乗換1回,東京メトロ日比谷線,霞ヶ関,霞ヶ関,千代田区霞が関２丁目,139.750899,35.673838,東京メトロ,日比谷線
虎ノ門ヒルズ,11-20分,20分,乗換1回,東京メトロ日比谷線,虎ノ門ヒルズ,虎ノ門ヒルズ,港区虎ノ門一丁目22-12,139.747778,35.667444,東京メトロ,日比谷線
不動前,11-20分,19分,乗換1回,東急目黒線,不動前,不動前,品川区西五反田５-１２-１,139.71469,35.626526,東急,目黒線
赤羽橋,11-20分,19分,乗換1回,都営大江戸線（環状部）,赤羽橋,赤羽橋,港区東麻布１-２８-１３,139.743642,35.655007,都営,大江戸線（環状部）
築地市場,11-20分,20分,乗換1回,都営大江戸線（環状部）,築地市場,築地市場,中央区築地５-１-２,139.766915,35.664895,都営,大江戸線（環状部）
白金台,11-20分,19分,乗換1回,東京メトロ南北線,白金台,白金台,港区白金台３-２,139.726133,35.637917,東京メトロ,南北線
品川シーサイド,11-20分,19分,乗換1回,りんかい線,品川シーサイド,品川シーサイド,品川区東品川４-１２-２２,139.749549,35.608524,不明,りんかい線
竹芝,11-20分,20分,乗換1回,ゆりかもめ,竹芝,竹芝,港区海岸１-１３-１０,139.762037,35.654099,不明,ゆりかもめ
天王洲アイル（モノレール）,11-20分,20分,乗換1回,東京モノレール,天王洲アイル,天王洲アイル,品川区東品川２-５-１９,139.750675,35.622908,不明,東京モノレール
旗の台,21-30分,21分,乗換1回,東急池上線,旗の台,旗の台,品川区旗の台２-１３-１,139.702286,35.604923,東急,池上線
長原（東京都）,21-30分,22分,乗換1回,東急池上線,長原,長原,大田区上池台１-１０-１０,139.697881,35.60219,東急,池上線
洗足池,21-30分,24分,乗換1回,東急池上線,洗足池,洗足池,大田区東雪谷１-１-６,139.690896,35.599648,東急,池上線
蓮沼,21-30分,24分,乗換1回,東急池上線,蓮沼,蓮沼,大田区西蒲田７-１７-１,139.708544,35.564173,東急,池上線
石川台,21-30分,25分,乗換1回,東急池上線,石川台,石川台,大田区東雪谷２-２３-１,139.685063,35.596888,東急,池上線
池上,21-30分,26分,乗換1回,東急池上線,池上,池上,大田区池上６-３-１０,139.702822,35.572025,東急,池上線
雪が谷大塚,21-30分,27分,乗換1回,東急池上線,雪が谷大塚,雪が谷大塚,大田区南雪谷２-２-１６,139.681083,35.592038,東急,池上線
御嶽山,21-30分,28分,乗換1回,東急池上線,御嶽山,御嶽山,大田区北嶺町３２-１７,139.682473,35.585236,東急,池上線
千鳥町,21-30分,28分,乗換1回,東急池上線,千鳥町,千鳥町,大田区千鳥１-２０-１,139.69142,35.572983,東急,池上線
久が原,21-30分,29分,乗換1回,東急池上線,久が原,久が原,大田区南久が原２-６-１０,139.685678,35.579499,東急,池上線
銀座一丁目,21-30分,21分,乗換1回,東京メトロ有楽町線,銀座一丁目,銀座一丁目,東京都中央区銀座一丁目7-12,139.767045,35.67435,東京メトロ,有楽町線
桜田門,21-30分,22分,乗換1回,東京メトロ有楽町線,桜田門,桜田門,東京都千代田区霞が関二丁目1-1,139.75149,35.677405,東京メトロ,有楽町線
新富町（東京都）,21-30分,23分,乗換1回,東京メトロ有楽町線,新富町,新富町,東京都中央区築地一丁目1-1,139.773711,35.670462,東京メトロ,有楽町線
麹町,21-30分,26分,乗換1回,東京メトロ有楽町線,麹町,麹町,東京都千代田区麹町三丁目2,139.737613,35.684006,東京メトロ,有楽町線
豊洲,21-30分,27分,乗換1回,東京メトロ有楽町線,豊洲,豊洲,東京都江東区豊洲四丁目1-1,139.79621,35.654908,東京メトロ,有楽町線
市ヶ谷,21-30分,28分,乗換1回,東京メトロ有楽町線,市ヶ谷,市ヶ谷,東京都新宿区市谷田町一丁目1,139.735583,35.691,東京メトロ,有楽町線
辰巳,21-30分,29分,乗換1回,東京メトロ有楽町線,辰巳,辰巳,東京都江東区辰巳一丁目1-44,139.81052,35.645576,東京メトロ,有楽町線
御茶ノ水,21-30分,21分,乗換1回,ＪＲ中央本線（東京-塩尻）,御茶ノ水,御茶ノ水,千代田区神田駿河台２丁目,139.764955,35.699605,ＪＲ,中央本線（東京-塩尻）
水道橋,21-30分,24分,乗換1回,ＪＲ中央本線（東京-塩尻）,水道橋,水道橋,千代田区三崎町２丁目,139.754312,35.702039,ＪＲ,中央本線（東京-塩尻）
四ツ谷,21-30分,26分,乗換1回,ＪＲ中央本線（東京-塩尻）,四ツ谷,四ツ谷,東京都新宿区四谷一丁目,139.730644,35.686041,ＪＲ,中央本線（東京-塩尻）
飯田橋,21-30分,26分,乗換1回,ＪＲ中央本線（東京-塩尻）,飯田橋,飯田橋,東京都千代田区飯田橋四丁目10-2,139.745143,35.701835,ＪＲ,中央本線（東京-塩尻）
千駄ヶ谷,21-30分,28分,乗換1回,ＪＲ中央本線（東京-塩尻）,千駄ヶ谷,千駄ヶ谷,東京都渋谷区千駄ヶ谷一丁目35-10,139.711644,35.681231,ＪＲ,中央本線（東京-塩尻）
信濃町,21-30分,30分,乗換1回,ＪＲ中央本線（東京-塩尻）,信濃町,信濃町,新宿区信濃町,139.720729,35.680031,ＪＲ,中央本線（東京-塩尻）
大久保（東京都）,21-30分,30分,乗換1回,ＪＲ中央本線（東京-塩尻）,大久保,大久保,新宿区百人町１丁目,139.69732,35.700784,ＪＲ,中央本線（東京-塩尻）
西大井,21-30分,21分,乗換1回,ＪＲ横須賀線,西大井,西大井,品川区西大井１丁目,139.721729,35.601616,ＪＲ,横須賀線
武蔵小杉,21-30分,26分,乗換1回,ＪＲ横須賀線,武蔵小杉,武蔵小杉,川崎市中原区小杉町三丁目492,139.65963,35.57669,ＪＲ,横須賀線
新川崎,21-30分,29分,乗換1回,ＪＲ横須賀線,新川崎,新川崎,川崎市幸区鹿島田,139.671481,35.551784,ＪＲ,横須賀線
西馬込,21-30分,21分,乗換0回,都営浅草線,西馬込,西馬込,大田区西馬込２-１-６,139.705942,35.586859,都営,浅草線
人形町,21-30分,22分,乗換0回,都営浅草線,人形町,人形町,中央区日本橋人形町２-６-５,139.782285,35.686307,都営,浅草線
東日本橋,21-30分,24分,乗換0回,都営浅草線,東日本橋,東日本橋,中央区東日本橋３-１１-８,139.784821,35.692126,都営,浅草線
蔵前,21-30分,27分,乗換0回,都営浅草線,蔵前,蔵前,台東区蔵前２-３-１,139.790931,35.703236,都営,浅草線
本所吾妻橋,21-30分,30分,乗換0回,都営浅草線,本所吾妻橋,本所吾妻橋,墨田区吾妻橋３-７-１６,139.804624,35.70858,都営,浅草線
代々木,21-30分,21分,乗換0回,ＪＲ山手線,代々木,代々木,東京都渋谷区代々木一丁目34-1,139.702042,35.683061,ＪＲ,山手線
鶯谷,21-30分,22分,乗換0回,ＪＲ山手線,鶯谷,鶯谷,東京都台東区根岸一丁目4-1,139.778015,35.721484,ＪＲ,山手線
新宿,21-30分,23分,乗換0回,ＪＲ山手線,新宿,新宿,東京都新宿区新宿三丁目38-1,139.700464,35.689729,ＪＲ,山手線
日暮里,21-30分,24分,乗換0回,ＪＲ山手線,日暮里,日暮里,東京都荒川区西日暮里二丁目19-1,139.771287,35.727908,ＪＲ,山手線
新大久保,21-30分,25分,乗換0回,ＪＲ山手線,新大久保,新大久保,東京都新宿区百人町一丁目10-15,139.700261,35.700875,ＪＲ,山手線
西日暮里,21-30分,25分,乗換0回,ＪＲ山手線,西日暮里,西日暮里,東京都荒川区西日暮里五丁目22-1,139.766857,35.731954,ＪＲ,山手線
高田馬場,21-30分,27分,乗換0回,ＪＲ山手線,高田馬場,高田馬場,東京都新宿区高田馬場一丁目35-1,139.703715,35.712677,ＪＲ,山手線
駒込,21-30分,29分,乗換0回,ＪＲ山手線,駒込,駒込,東京都豊島区駒込二丁目1-1,139.748053,35.736825,ＪＲ,山手線
目白,21-30分,29分,乗換0回,ＪＲ山手線,目白,目白,東京都豊島区目白三丁目3-1,139.706228,35.720476,ＪＲ,山手線
立会川,21-30分,21分,乗換1回,京急本線,立会川,立会川,品川区東大井２-２３-１,139.738886,35.598489,京急,本線
大森海岸,21-30分,23分,乗換1回,京急本線,大森海岸,大森海岸,品川区南大井３-３２-１,139.73544,35.587576,京急,本線
平和島,21-30分,23分,乗換1回,京急本線,平和島,平和島,大田区大森北６-１３-１１,139.73491,35.57868,京急,本線
京急蒲田,21-30分,24分,乗換1回,京急本線,京急蒲田,京急蒲田,大田区蒲田４-５０-１０,139.723681,35.560796,京急,本線
大森町,21-30分,28分,乗換1回,京急本線,大森町,大森町,大田区大森西３-２４-７,139.732027,35.572431,京急,本線
梅屋敷（東京都）,21-30分,29分,乗換1回,京急本線,梅屋敷,梅屋敷,大田区蒲田２-２８-１,139.728266,35.566873,京急,本線
麻布十番,21-30分,21分,乗換1回,都営大江戸線（環状部）,麻布十番,麻布十番,港区麻布十番４-４-９,139.737051,35.654682,都営,大江戸線（環状部）
勝どき,21-30分,22分,乗換1回,都営大江戸線（環状部）,勝どき,勝どき,中央区勝どき２-１０-１５,139.776442,35.658507,都営,大江戸線（環状部）
六本木,21-30分,23分,乗換1回,都営大江戸線（環状部）,六本木,六本木,港区六本木６-１-２５,139.731443,35.662836,都営,大江戸線（環状部）
月島,21-30分,24分,乗換1回,都営大江戸線（環状部）,月島,月島,東京都中央区月島一丁目3-9,139.784233,35.664871,都営,大江戸線（環状部）
門前仲町,21-30分,26分,乗換1回,都営大江戸線（環状部）,門前仲町,門前仲町,江東区門前仲町１丁目,139.796209,35.671851,都営,大江戸線（環状部）
国立競技場,21-30分,27分,乗換1回,都営大江戸線（環状部）,国立競技場,国立競技場,新宿区霞ヶ丘町１０-３,139.714932,35.679831,都営,大江戸線（環状部）
新御徒町,21-30分,28分,乗換1回,都営大江戸線（環状部）,新御徒町,新御徒町,台東区元浅草１-５-２,139.781958,35.707045,都営,大江戸線（環状部）
清澄白河,21-30分,29分,乗換1回,都営大江戸線（環状部）,清澄白河,清澄白河,江東区白河１-７-１４,139.798851,35.682105,都営,大江戸線（環状部）
森下（東京都）,21-30分,30分,乗換1回,都営大江戸線（環状部）,森下,森下,江東区森下２-１７-１７,139.797042,35.68796,都営,大江戸線（環状部）
天王洲アイル（りんかい線）,21-30分,21分,乗換1回,りんかい線,天王洲アイル,天王洲アイル,品川区東品川２-５-１９,139.750675,35.622908,不明,りんかい線
東京テレポート,21-30分,24分,乗換1回,りんかい線,東京テレポート,東京テレポート,江東区青海１-２,139.778896,35.62753,不明,りんかい線
国際展示場（りんかい線）,21-30分,27分,乗換1回,りんかい線,国際展示場,国際展示場,江東区有明２-５-２５,139.791617,35.63441,不明,りんかい線
東雲（東京都）,21-30分,29分,乗換1回,りんかい線,東雲,東雲,江東区東雲２-８-１０,139.804395,35.640987,不明,りんかい線
神谷町,21-30分,22分,乗換1回,東京メトロ日比谷線,神谷町,神谷町,港区虎ノ門５-１２-１１,139.745069,35.662978,東京メトロ,日比谷線
築地,21-30分,22分,乗換1回,東京メトロ日比谷線,築地,築地,中央区築地３-１５-１,139.772603,35.668115,東京メトロ,日比谷線
中目黒,21-30分,23分,乗換1回,東京メトロ日比谷線,中目黒,中目黒,目黒区上目黒３-４-１,139.698621,35.643854,東京メトロ,日比谷線
広尾,21-30分,24分,乗換1回,東京メトロ日比谷線,広尾,広尾,港区南麻布５-１０-２８,139.722202,35.652279,東京メトロ,日比谷線
八丁堀（東京都）,21-30分,24分,乗換1回,東京メトロ日比谷線,八丁堀,八丁堀,中央区八丁堀３丁目,139.777705,35.674617,東京メトロ,日比谷線
小伝馬町,21-30分,27分,乗換1回,東京メトロ日比谷線,小伝馬町,小伝馬町,中央区日本橋小伝馬町１１-１,139.778433,35.690737,東京メトロ,日比谷線
入谷（東京都）,21-30分,28分,乗換1回,東京メトロ日比谷線,入谷,入谷,台東区入谷１-６-４,139.783924,35.719862,東京メトロ,日比谷線
三ノ輪,21-30分,30分,乗換1回,東京メトロ日比谷線,三ノ輪,三ノ輪,台東区三ノ輪２-１４-７,139.791485,35.729623,東京メトロ,日比谷線
神保町,21-30分,22分,乗換1回,都営三田線,神保町,神保町,千代田区神田神保町２-２,139.757606,35.695966,都営,三田線
春日（東京都）,21-30分,26分,乗換1回,都営三田線,春日,春日,文京区春日１-１６-１７,139.75325,35.709598,都営,三田線
白山（東京都）,21-30分,28分,乗換1回,都営三田線,白山,白山,文京区白山５-３６-１０,139.752136,35.721408,都営,三田線
千石,21-30分,30分,乗換1回,都営三田線,千石,千石,文京区千石１-２９-１３,139.744792,35.727957,都営,三田線
青山一丁目,21-30分,22分,乗換1回,東京メトロ銀座線,青山一丁目,青山一丁目,港区南青山１-１-１９,139.724159,35.672765,東京メトロ,銀座線
稲荷町（東京都）,21-30分,24分,乗換1回,東京メトロ銀座線,稲荷町,稲荷町,台東区東上野３-３３-１１,139.782593,35.711273,東京メトロ,銀座線
外苑前,21-30分,24分,乗換1回,東京メトロ銀座線,外苑前,外苑前,港区北青山２-７-１６,139.717857,35.670527,東京メトロ,銀座線
表参道,21-30分,24分,乗換1回,東京メトロ銀座線,表参道,表参道,港区北青山３丁目,139.712314,35.665247,東京メトロ,銀座線
田原町（東京都）,21-30分,25分,乗換1回,東京メトロ銀座線,田原町,田原町,台東区西浅草１-１-１８,139.790897,35.709897,東京メトロ,銀座線
浅草,21-30分,27分,乗換1回,東京メトロ銀座線,浅草,浅草,東京都台東区花川戸一丁目4-1,139.798214,35.711883,東京メトロ,銀座線
浅草橋,21-30分,22分,乗換1回,ＪＲ総武線各停（御茶ノ水-錦糸町）,浅草橋,浅草橋,台東区浅草橋１丁目,139.784427,35.697403,ＪＲ,総武線各停（御茶ノ水-錦糸町）
両国〔ＪＲ〕,21-30分,23分,乗換1回,ＪＲ総武線各停（御茶ノ水-錦糸町）,両国,両国,墨田区横網１丁目,139.793334,35.69579,ＪＲ,総武線各停（御茶ノ水-錦糸町）
錦糸町,21-30分,26分,乗換1回,ＪＲ総武線各停（御茶ノ水-錦糸町）,錦糸町,錦糸町,墨田区江東橋３丁目,139.814136,35.696802,ＪＲ,総武線各停（御茶ノ水-錦糸町）
淡路町,21-30分,22分,乗換1回,東京メトロ丸ノ内線,淡路町,淡路町,千代田区神田淡路町１-２,139.7675149,35.6953595,東京メトロ,丸ノ内線
本郷三丁目,21-30分,26分,乗換1回,東京メトロ丸ノ内線,本郷三丁目,本郷三丁目,文京区本郷２-３９-１,139.759914,35.706671,東京メトロ,丸ノ内線
後楽園,21-30分,27分,乗換1回,東京メトロ丸ノ内線,後楽園,後楽園,文京区春日１-２-３,139.751864,35.707898,東京メトロ,丸ノ内線
四谷三丁目,21-30分,28分,乗換2回,東京メトロ丸ノ内線,四谷三丁目,四谷三丁目,新宿区四谷３-８,139.720103,35.687958,東京メトロ,丸ノ内線
新宿御苑前,21-30分,30分,乗換2回,東京メトロ丸ノ内線,新宿御苑前,新宿御苑前,新宿区新宿１-８-１,139.71069,35.688588,東京メトロ,丸ノ内線
茗荷谷,21-30分,30分,乗換1回,東京メトロ丸ノ内線,茗荷谷,茗荷谷,文京区小日向４-６-１５,139.737184,35.716989,東京メトロ,丸ノ内線
鶴見,21-30分,22分,乗換0回,ＪＲ京浜東北線,鶴見,鶴見,横浜市鶴見区鶴見中央,139.67614,35.508387,ＪＲ,京浜東北線
田端,21-30分,23分,乗換0回,ＪＲ京浜東北線,田端,田端,東京都北区東田端一丁目17-1,139.761229,35.737781,ＪＲ,京浜東北線
上中里,21-30分,26分,乗換0回,ＪＲ京浜東北線,上中里,上中里,北区上中里１丁目,139.745769,35.74728,ＪＲ,京浜東北線
新子安,21-30分,26分,乗換0回,ＪＲ京浜東北線,新子安,新子安,横浜市神奈川区子安通,139.654776,35.487064,ＪＲ,京浜東北線
王子,21-30分,28分,乗換0回,ＪＲ京浜東北線,王子,王子,北区王子１丁目,139.73809,35.752538,ＪＲ,京浜東北線
東神奈川,21-30分,29分,乗換0回,ＪＲ京浜東北線,東神奈川,東神奈川,横浜市神奈川区東神奈川,139.633466,35.47804,ＪＲ,京浜東北線
日の出（東京都）,21-30分,22分,乗換1回,ゆりかもめ,日の出,日の出,港区海岸２-７-６８,139.75906,35.649136,不明,ゆりかもめ
芝浦ふ頭,21-30分,23分,乗換1回,ゆりかもめ,芝浦ふ頭,芝浦ふ頭,港区海岸３-２２-１２,139.757852,35.641773,不明,ゆりかもめ
お台場海浜公園,21-30分,29分,乗換1回,ゆりかもめ,お台場海浜公園,お台場海浜公園,港区台場２-３,139.778607,35.629813,不明,ゆりかもめ
武蔵小山,21-30分,22分,乗換1回,東急目黒線,武蔵小山,武蔵小山,品川区小山３-４-８,139.704524,35.620538,東急,目黒線
西小山,21-30分,23分,乗換1回,東急目黒線,西小山,西小山,品川区小山６-３-１０,139.698694,35.615455,東急,目黒線
洗足,21-30分,25分,乗換1回,東急目黒線,洗足,洗足,目黒区洗足２-２１-１,139.694367,35.61043,東急,目黒線
奥沢,21-30分,29分,乗換1回,東急目黒線,奥沢,奥沢,世田谷区奥沢３-４７-１７,139.672355,35.603947,東急,目黒線
田園調布,21-30分,30分,乗換1回,東急目黒線,田園調布,田園調布,大田区田園調布３-２５-１８,139.667356,35.596815,東急,目黒線
北千束,21-30分,23分,乗換1回,東急大井町線,北千束,北千束,大田区北千束２-１６-１,139.693303,35.606311,東急,大井町線
大岡山,21-30分,25分,乗換1回,東急大井町線,大岡山,大岡山,大田区北千束３-２７-１,139.685909,35.607456,東急,大井町線
緑が丘（東京都）,21-30分,27分,乗換1回,東急大井町線,緑が丘,緑が丘,目黒区緑が丘３-１-１２,139.679482,35.60638,東急,大井町線
自由が丘（東京都）,21-30分,28分,乗換1回,東急大井町線,自由が丘,自由が丘,目黒区自由が丘１-３０-１,139.668664,35.607224,東急,大井町線
九品仏,21-30分,30分,乗換1回,東急大井町線,九品仏,九品仏,世田谷区奥沢７-２０-１,139.660992,35.60538,東急,大井町線
大井競馬場前,21-30分,24分,乗換1回,東京モノレール,大井競馬場前,大井競馬場前,品川区勝島２-２-３５,139.74708,35.595006,不明,東京モノレール
流通センター,21-30分,26分,乗換1回,東京モノレール,流通センター,流通センター,大田区平和島６-１-２,139.748964,35.58186,不明,東京モノレール
羽田空港第3ターミナル（モノレール）,21-30分,28分,乗換1回,東京モノレール,羽田空港第3ターミナル,羽田空港第3ターミナル,東京都大田区羽田空港二丁目6番5号,139.768968,35.544676,不明,東京モノレール
昭和島,21-30分,29分,乗換1回,東京モノレール,昭和島,昭和島,大田区昭和島２-２-１,139.749918,35.570656,不明,東京モノレール
竹橋,21-30分,24分,乗換1回,東京メトロ東西線,竹橋,竹橋,千代田区一ッ橋１-１-１,139.756817,35.690662,東京メトロ,東西線
茅場町,21-30分,25分,乗換1回,東京メトロ東西線,茅場町,茅場町,中央区日本橋茅場町１-４-６,139.780005,35.679752,東京メトロ,東西線
九段下,21-30分,26分,乗換1回,東京メトロ東西線,九段下,九段下,千代田区九段南１-６-１,139.751948,35.695589,東京メトロ,東西線
木場,21-30分,29分,乗換1回,東京メトロ東西線,木場,木場,江東区木場５-５-１,139.807042,35.669351,東京メトロ,東西線
神楽坂,21-30分,30分,乗換1回,東京メトロ東西線,神楽坂,神楽坂,新宿区矢来町１１２,139.734546,35.70379,東京メトロ,東西線
馬喰町,21-30分,25分,乗換1回,ＪＲ総武本線（東京-銚子）,馬喰町,馬喰町,中央区日本橋馬喰町１丁目,139.78238,35.693365,ＪＲ,総武本線（東京-銚子）
亀戸,21-30分,28分,乗換1回,ＪＲ総武本線（東京-銚子）,亀戸,亀戸,江東区亀戸５丁目,139.826262,35.697345,ＪＲ,総武本線（東京-銚子）
平井（東京都）,21-30分,30分,乗換1回,ＪＲ総武本線（東京-銚子）,平井,平井,江戸川区平井３丁目,139.842181,35.70643,ＪＲ,総武本線（東京-銚子）
矢口渡,21-30分,25分,乗換1回,東急多摩川線,矢口渡,矢口渡,大田区多摩川１-２０-１５,139.700389,35.562462,東急,多摩川線
武蔵新田,21-30分,26分,乗換1回,東急多摩川線,武蔵新田,武蔵新田,大田区矢口１-１８-１,139.692506,35.567806,東急,多摩川線
下丸子,21-30分,28分,乗換1回,東急多摩川線,下丸子,下丸子,大田区下丸子３-７-１,139.685576,35.571397,東急,多摩川線
鵜の木,21-30分,29分,乗換1回,東急多摩川線,鵜の木,鵜の木,大田区鵜の木２-４-１,139.680554,35.575452,東急,多摩川線
池尻大橋,21-30分,26分,乗換1回,東急田園都市線,池尻大橋,池尻大橋,世田谷区池尻３-２,139.684319,35.650603,東急,田園都市線
三軒茶屋,21-30分,28分,乗換1回,東急田園都市線,三軒茶屋,三軒茶屋,世田谷区太子堂４-２１-１,139.670156,35.643716,東急,田園都市線
駒沢大学,21-30分,30分,乗換1回,東急田園都市線,駒沢大学,駒沢大学,世田谷区上馬４-３,139.661702,35.633471,東急,田園都市線
六本木一丁目,21-30分,26分,乗換2回,東京メトロ南北線,六本木一丁目,六本木一丁目,港区六本木１-４-１,139.739,35.665595,東京メトロ,南北線
神泉,21-30分,27分,乗換1回,京王井の頭線,神泉,神泉,渋谷区神泉町４-６,139.693579,35.657244,京王,井の頭線
駒場東大前,21-30分,29分,乗換1回,京王井の頭線,駒場東大前,駒場東大前,目黒区駒場３-９-１,139.684308,35.65868,京王,井の頭線
池ノ上,21-30分,30分,乗換1回,京王井の頭線,池ノ上,池ノ上,世田谷区代沢２-４３-８,139.67344,35.660402,京王,井の頭線
赤坂（東京都）,21-30分,27分,乗換1回,東京メトロ千代田線,赤坂,赤坂,港区赤坂５丁目,139.738348,35.67323,東京メトロ,千代田線
代々木公園,21-30分,27分,乗換1回,東京メトロ千代田線,代々木公園,代々木公園,渋谷区富ヶ谷１丁目,139.689099,35.669187,東京メトロ,千代田線
代々木上原,21-30分,28分,乗換1回,東京メトロ千代田線,代々木上原,代々木上原,渋谷区西原３丁目,139.680153,35.669159,東京メトロ,千代田線
湯島,21-30分,28分,乗換1回,東京メトロ千代田線,湯島,湯島,文京区湯島３丁目,139.769916,35.708243,東京メトロ,千代田線
乃木坂,21-30分,29分,乗換1回,東京メトロ千代田線,乃木坂,乃木坂,港区南青山１丁目,139.726215,35.666572,東京メトロ,千代田線
根津,21-30分,30分,乗換1回,東京メトロ千代田線,根津,根津,文京区根津１丁目,139.765655,35.7174,東京メトロ,千代田線
尻手,21-30分,28分,乗換1回,ＪＲ南武線（川崎-立川）,尻手,尻手,川崎市幸区南幸町３丁目,139.684233,35.530939,ＪＲ,南武線（川崎-立川）
矢向,21-30分,30分,乗換1回,ＪＲ南武線（川崎-立川）,矢向,矢向,横浜市鶴見区矢向６丁目,139.68055,35.539408,ＪＲ,南武線（川崎-立川）
半蔵門,21-30分,28分,乗換2回,東京メトロ半蔵門線,半蔵門,半蔵門,千代田区麹町１-６,139.74163,35.685703,東京メトロ,半蔵門線
糀谷,21-30分,28分,乗換1回,京急空港線,糀谷,糀谷,大田区西糀谷４-１３-１７,139.72962,35.5545,京急,空港線
大鳥居,21-30分,30分,乗換1回,京急空港線,大鳥居,大鳥居,大田区西糀谷３-３７-１８,139.739356,35.552531,京急,空港線
浜町,21-30分,29分,乗換1回,都営新宿線,浜町,浜町,中央区日本橋浜町２-５９-３,139.788154,35.688516,都営,新宿線
港町,21-30分,30分,乗換1回,京急大師線,港町,港町,川崎市川崎区港町１-１,139.712578,35.535014,京急,大師線
代官山,21-30分,30分,乗換1回,東急東横線,代官山,代官山,渋谷区代官山町１９-４,139.703284,35.648193,東急,東横線
祐天寺,21-30分,30分,乗換2回,東急東横線,祐天寺,祐天寺,目黒区祐天寺２-１３-３,139.690758,35.637163,東急,東横線
横浜,31-40分,31分,乗換0回,ＪＲ京浜東北線,横浜,横浜,横浜市西区高島２丁目,139.622704,35.466195,ＪＲ,京浜東北線
東十条,31-40分,31分,乗換0回,ＪＲ京浜東北線,東十条,東十条,北区東十条３丁目,139.726858,35.763803,ＪＲ,京浜東北線
赤羽,31-40分,34分,乗換0回,ＪＲ京浜東北線,赤羽,赤羽,北区赤羽１丁目,139.720928,35.778026,ＪＲ,京浜東北線
川口,31-40分,38分,乗換0回,ＪＲ京浜東北線,川口,川口,川口市栄町３丁目,139.717472,35.801869,ＪＲ,京浜東北線
下北沢,31-40分,31分,乗換1回,京王井の頭線,下北沢,下北沢,世田谷区北沢２丁目,139.66691,35.661539,京王,井の頭線
新代田,31-40分,33分,乗換1回,京王井の頭線,新代田,新代田,世田谷区代田５-３０-１８,139.660524,35.662593,京王,井の頭線
東松原,31-40分,34分,乗換1回,京王井の頭線,東松原,東松原,世田谷区松原５-２-６,139.655535,35.662634,京王,井の頭線
明大前,31-40分,35分,乗換1回,京王井の頭線,明大前,明大前,世田谷区松原２-４５-１,139.650352,35.668758,京王,井の頭線
永福町,31-40分,38分,乗換1回,京王井の頭線,永福町,永福町,杉並区永福２-６０-３１,139.642733,35.67629,京王,井の頭線
学芸大学,31-40分,31分,乗換2回,東急東横線,学芸大学,学芸大学,目黒区鷹番３-２-１,139.68522,35.628786,東急,東横線
都立大学,31-40分,33分,乗換2回,東急東横線,都立大学,都立大学,目黒区中根１-５-１,139.676393,35.617835,東急,東横線
穴守稲荷,31-40分,31分,乗換1回,京急空港線,穴守稲荷,穴守稲荷,大田区羽田４-６-１１,139.746669,35.550326,京急,空港線
羽田空港第3ターミナル（京急）,31-40分,31分,乗換1回,京急空港線,羽田空港第3ターミナル,羽田空港第3ターミナル,東京都大田区羽田空港二丁目6番5号,139.768968,35.544676,京急,空港線
天空橋,31-40分,33分,乗換1回,京急空港線,天空橋,天空橋,大田区羽田空港１-１-２,139.75423,35.548908,京急,空港線
沼部,31-40分,31分,乗換1回,東急多摩川線,沼部,沼部,大田区田園調布本町２８-１,139.67326,35.582526,東急,多摩川線
多摩川,31-40分,32分,乗換1回,東急多摩川線,多摩川,多摩川,大田区田園調布１-５３-８,139.668723,35.589591,東急,多摩川線
新三河島,31-40分,31分,乗換1回,京成本線,新三河島,新三河島,荒川区西日暮里６-２-１,139.773834,35.73714,京成,本線
町屋〔京成線〕,31-40分,32分,乗換1回,京成本線,町屋,町屋,荒川区町屋１丁目,139.781499,35.742354,京成,本線
千住大橋,31-40分,35分,乗換1回,京成本線,千住大橋,千住大橋,足立区千住橋戸町１１-１,139.796934,35.74243,京成,本線
京成関屋,31-40分,37分,乗換1回,京成本線,京成関屋,京成関屋,足立区千住曙町２-２,139.81183,35.744008,京成,本線
堀切菖蒲園,31-40分,39分,乗換1回,京成本線,堀切菖蒲園,堀切菖蒲園,葛飾区堀切５-１-１,139.827545,35.747649,京成,本線
お花茶屋,31-40分,40分,乗換1回,京成本線,お花茶屋,お花茶屋,葛飾区宝町２-３７-１,139.83988,35.747585,京成,本線
新宿三丁目,31-40分,31分,乗換2回,東京メトロ丸ノ内線,新宿三丁目,新宿三丁目,新宿区新宿３-１４-１,139.704895,35.690847,東京メトロ,丸ノ内線
新大塚,31-40分,32分,乗換1回,東京メトロ丸ノ内線,新大塚,新大塚,文京区大塚４-５１-５,139.729971,35.72569,東京メトロ,丸ノ内線
西新宿,31-40分,32分,乗換1回,東京メトロ丸ノ内線,西新宿,西新宿,新宿区西新宿６-７-５１,139.692778,35.694298,東京メトロ,丸ノ内線
中野坂上,31-40分,34分,乗換1回,東京メトロ丸ノ内線,中野坂上,中野坂上,中野区中央２-１-２,139.68291,35.69792,東京メトロ,丸ノ内線
新中野,31-40分,36分,乗換1回,東京メトロ丸ノ内線,新中野,新中野,中野区中央４-２-１５,139.66903,35.697491,東京メトロ,丸ノ内線
東高円寺,31-40分,37分,乗換1回,東京メトロ丸ノ内線,東高円寺,東高円寺,杉並区和田３-５５-４２,139.657822,35.697802,東京メトロ,丸ノ内線
新高円寺,31-40分,39分,乗換1回,東京メトロ丸ノ内線,新高円寺,新高円寺,杉並区高円寺南２-２０-１,139.648068,35.697985,東京メトロ,丸ノ内線
新木場,31-40分,31分,乗換1回,りんかい線,新木場,新木場,東京都江東区新木場一丁目5,139.827402,35.646172,不明,りんかい線
巣鴨,31-40分,31分,乗換0回,ＪＲ山手線,巣鴨,巣鴨,東京都豊島区巣鴨一丁目16-1,139.739303,35.733445,ＪＲ,山手線
池袋,31-40分,31分,乗換0回,ＪＲ山手線,池袋,池袋,東京都豊島区南池袋一丁目28-2,139.711086,35.730256,ＪＲ,山手線
大塚（東京都）,31-40分,33分,乗換0回,ＪＲ山手線,大塚,大塚,東京都豊島区南大塚三丁目33-1,139.728584,35.731412,ＪＲ,山手線
台場,31-40分,31分,乗換1回,ゆりかもめ,台場,台場,港区台場２-６,139.771435,35.625908,不明,ゆりかもめ
東京国際クルーズターミナル,31-40分,32分,乗換1回,ゆりかもめ,東京国際クルーズターミナル,東京国際クルーズターミナル,江東区青海1丁目1-49,139.773157,35.621462,不明,ゆりかもめ
テレコムセンター,31-40分,34分,乗換1回,ゆりかもめ,テレコムセンター,テレコムセンター,江東区青海２-２９,139.779327,35.617593,不明,ゆりかもめ
東京ビッグサイト（ゆりかもめ）,31-40分,34分,乗換2回,ゆりかもめ,東京ビッグサイト,東京ビッグサイト,江東区有明三丁目6-15,139.791228,35.630158,不明,ゆりかもめ
有明テニスの森,31-40分,34分,乗換2回,ゆりかもめ,有明テニスの森,有明テニスの森,江東区有明１丁目,139.78888,35.639964,不明,ゆりかもめ
青海（東京都）,31-40分,36分,乗換1回,ゆりかもめ,青海,青海,江東区青海１,139.781132,35.62467,不明,ゆりかもめ
市場前,31-40分,36分,乗換2回,ゆりかもめ,市場前,市場前,江東区豊洲６丁目,139.78564,35.645684,不明,ゆりかもめ
新豊洲,31-40分,37分,乗換2回,ゆりかもめ,新豊洲,新豊洲,江東区豊洲６丁目,139.789996,35.648718,不明,ゆりかもめ
東陽町,31-40分,31分,乗換1回,東京メトロ東西線,東陽町,東陽町,江東区東陽４-２-１,139.817596,35.669629,東京メトロ,東西線
早稲田〔東西線〕,31-40分,32分,乗換1回,東京メトロ東西線,早稲田,早稲田,東京都新宿区早稲田南町12,139.721319,35.705723,東京メトロ,東西線
南砂町,31-40分,33分,乗換1回,東京メトロ東西線,南砂町,南砂町,江東区南砂３-１１-８５,139.83065,35.668796,東京メトロ,東西線
西葛西,31-40分,36分,乗換1回,東京メトロ東西線,西葛西,西葛西,江戸川区西葛西６-１４-１,139.859259,35.664631,東京メトロ,東西線
葛西,31-40分,38分,乗換1回,東京メトロ東西線,葛西,葛西,江戸川区中葛西５-４３-１１,139.872458,35.663554,東京メトロ,東西線
落合（東京都）,31-40分,39分,乗換1回,東京メトロ東西線,落合,落合,新宿区上落合２-１３-７,139.687284,35.710976,東京メトロ,東西線
尾久,31-40分,31分,乗換1回,ＪＲ宇都宮線〔東北本線〕・ＪＲ上野東京ライン,尾久,尾久,北区昭和町１丁目,139.753846,35.74683,ＪＲ,宇都宮線〔東北本線〕・ＪＲ上野東京ライン
尾山台,31-40分,31分,乗換1回,東急大井町線,尾山台,尾山台,世田谷区等々力５-５-７,139.653862,35.606971,東急,大井町線
等々力,31-40分,33分,乗換1回,東急大井町線,等々力,等々力,世田谷区等々力３-１-１,139.647938,35.608369,東急,大井町線
上野毛,31-40分,34分,乗換1回,東急大井町線,上野毛,上野毛,世田谷区上野毛１-２６-６,139.638917,35.611957,東急,大井町線
二子玉川,31-40分,36分,乗換1回,東急大井町線,二子玉川,二子玉川,世田谷区玉川２-２２-１３,139.626685,35.611788,東急,大井町線
溝の口〔東急線〕,31-40分,38分,乗換1回,東急大井町線,溝の口,溝の口,川崎市高津区溝口２-１-１,139.610487,35.59984,東急,大井町線
二子新地,31-40分,39分,乗換1回,東急大井町線,二子新地,二子新地,川崎市高津区二子２-２-１,139.622338,35.606994,東急,大井町線
鈴木町,31-40分,31分,乗換1回,京急大師線,鈴木町,鈴木町,川崎市川崎区鈴木町２-２,139.720655,35.53535,京急,大師線
川崎大師,31-40分,33分,乗換1回,京急大師線,川崎大師,川崎大師,川崎市川崎区大師駅前１-１８-１,139.725946,35.535711,京急,大師線
東門前,31-40分,34分,乗換1回,京急大師線,東門前,東門前,川崎市川崎区中瀬３-２３-１０,139.734298,35.536566,京急,大師線
大師橋,31-40分,36分,乗換1回,京急大師線,大師橋,大師橋,川崎市川崎区大師河原２-４-２５,139.740381,35.536611,京急,大師線
小島新田,31-40分,38分,乗換1回,京急大師線,小島新田,小島新田,川崎市川崎区田町２-３-１５,139.747575,35.534798,京急,大師線
羽田空港第1ターミナル（モノレール）,31-40分,31分,乗換1回,東京モノレール,羽田空港第1ターミナル,羽田空港第1ターミナル,大田区羽田空港３-３-２,139.784653,35.549163,不明,東京モノレール
整備場,31-40分,32分,乗換1回,東京モノレール,整備場,整備場,大田区羽田空港１-７-４,139.753366,35.555125,不明,東京モノレール
羽田空港第2ターミナル（モノレール）,31-40分,33分,乗換1回,東京モノレール,羽田空港第2ターミナル,羽田空港第2ターミナル,大田区羽田空港３-４-２,139.787979,35.550734,不明,東京モノレール
新整備場,31-40分,39分,乗換1回,東京モノレール,新整備場,新整備場,大田区羽田空港３-５-１,139.786777,35.542773,不明,東京モノレール
越中島,31-40分,32分,乗換1回,ＪＲ京葉線,越中島,越中島,江東区越中島２丁目,139.792713,35.667946,ＪＲ,京葉線
潮見,31-40分,35分,乗換1回,ＪＲ京葉線,潮見,潮見,江東区潮見２丁目,139.817341,35.658702,ＪＲ,京葉線
押上[スカイツリー前],31-40分,32分,乗換0回,都営浅草線,押上,押上,墨田区押上一丁目,139.812935,35.710702,都営,浅草線
菊川（東京都）,31-40分,32分,乗換1回,都営新宿線,菊川,菊川,墨田区菊川３-１６-２,139.806016,35.688379,都営,新宿線
住吉（東京都）,31-40分,34分,乗換1回,都営新宿線,住吉,住吉,江東区住吉２-２３-１２,139.815681,35.689073,都営,新宿線
曙橋,31-40分,34分,乗換2回,都営新宿線,曙橋,曙橋,新宿区住吉町７-１,139.722881,35.692402,都営,新宿線
西大島,31-40分,36分,乗換1回,都営新宿線,西大島,西大島,江東区大島２-４１-１９,139.826206,35.689349,都営,新宿線
大島（東京都）,31-40分,37分,乗換1回,都営新宿線,大島,大島,江東区大島５-１０-８,139.83565,35.689905,都営,新宿線
東大島,31-40分,40分,乗換1回,都営新宿線,東大島,東大島,江東区大島９-３-１４,139.845963,35.690355,都営,新宿線
国道,31-40分,32分,乗換1回,ＪＲ鶴見線（鶴見-扇町）,国道,国道,横浜市鶴見区生麦５丁目,139.675599,35.50083,ＪＲ,鶴見線（鶴見-扇町）
鶴見小野,31-40分,33分,乗換1回,ＪＲ鶴見線（鶴見-扇町）,鶴見小野,鶴見小野,横浜市鶴見区小野町,139.681226,35.497005,ＪＲ,鶴見線（鶴見-扇町）
弁天橋,31-40分,35分,乗換1回,ＪＲ鶴見線（鶴見-扇町）,弁天橋,弁天橋,横浜市鶴見区末広町１丁目,139.689451,35.495758,ＪＲ,鶴見線（鶴見-扇町）
浅野,31-40分,37分,乗換1回,ＪＲ鶴見線（鶴見-扇町）,浅野,浅野,横浜市鶴見区末広町２丁目,139.695739,35.497555,ＪＲ,鶴見線（鶴見-扇町）
安善,31-40分,39分,乗換1回,ＪＲ鶴見線（鶴見-扇町）,安善,安善,横浜市鶴見区安善町１丁目,139.700663,35.499668,ＪＲ,鶴見線（鶴見-扇町）
武蔵白石,31-40分,40分,乗換1回,ＪＲ鶴見線（鶴見-扇町）,武蔵白石,武蔵白石,川崎市川崎区白石町,139.706513,35.501912,ＪＲ,鶴見線（鶴見-扇町）
雑色,31-40分,32分,乗換1回,京急本線,雑色,雑色,大田区仲六郷２-４２-１,139.715005,35.549725,京急,本線
鶴見市場,31-40分,32分,乗換1回,京急本線,鶴見市場,鶴見市場,横浜市鶴見区市場大和町７-１,139.68642,35.517594,京急,本線
花月総持寺,31-40分,33分,乗換1回,京急本線,花月総持寺,花月総持寺,横浜市鶴見区生麦５-１-３,139.672813,35.500358,京急,本線
八丁畷,31-40分,33分,乗換1回,京急本線,八丁畷,八丁畷,川崎市川崎区池田１丁目,139.691446,35.523071,京急,本線
六郷土手,31-40分,33分,乗換1回,京急本線,六郷土手,六郷土手,大田区仲六郷４-２７-１１,139.7076,35.540577,京急,本線
子安,31-40分,34分,乗換1回,京急本線,子安,子安,横浜市神奈川区子安通１-４６,139.644965,35.484556,京急,本線
生麦,31-40分,35分,乗換1回,京急本線,生麦,生麦,横浜市鶴見区生麦３-１-３５,139.6673,35.4956,京急,本線
神奈川新町,31-40分,36分,乗換1回,京急本線,神奈川新町,神奈川新町,横浜市神奈川区亀住町１９-１,139.640152,35.481559,京急,本線
神奈川,31-40分,38分,乗換1回,京急本線,神奈川,神奈川,横浜市神奈川区青木町１-１,139.627364,35.471304,京急,本線
鹿島田,31-40分,32分,乗換1回,ＪＲ南武線（川崎-立川）,鹿島田,鹿島田,川崎市幸区鹿島田,139.674964,35.551459,ＪＲ,南武線（川崎-立川）
平間,31-40分,34分,乗換1回,ＪＲ南武線（川崎-立川）,平間,平間,川崎市中原区田尻町,139.671039,35.560565,ＪＲ,南武線（川崎-立川）
向河原,31-40分,36分,乗換1回,ＪＲ南武線（川崎-立川）,向河原,向河原,川崎市中原区下沼部,139.66725,35.572891,ＪＲ,南武線（川崎-立川）
武蔵中原,31-40分,40分,乗換1回,ＪＲ南武線（川崎-立川）,武蔵中原,武蔵中原,川崎市中原区上小田中,139.640613,35.581498,ＪＲ,南武線（川崎-立川）
千駄木,31-40分,32分,乗換1回,東京メトロ千代田線,千駄木,千駄木,文京区千駄木２丁目,139.763243,35.725549,東京メトロ,千代田線
町屋〔千代田線〕,31-40分,33分,乗換1回,東京メトロ千代田線,町屋,町屋,荒川区町屋１丁目,139.781499,35.742354,東京メトロ,千代田線
中野（東京都）,31-40分,32分,乗換1回,ＪＲ中央本線（東京-塩尻）,中野,中野,中野区中野５丁目,139.665835,35.705765,ＪＲ,中央本線（東京-塩尻）
東中野,31-40分,32分,乗換1回,ＪＲ中央本線（東京-塩尻）,東中野,東中野,中野区東中野４丁目,139.684436,35.706529,ＪＲ,中央本線（東京-塩尻）
高円寺,31-40分,34分,乗換1回,ＪＲ中央本線（東京-塩尻）,高円寺,高円寺,杉並区高円寺南４丁目,139.649664,35.705326,ＪＲ,中央本線（東京-塩尻）
阿佐ヶ谷,31-40分,36分,乗換1回,ＪＲ中央本線（東京-塩尻）,阿佐ヶ谷,阿佐ヶ谷,東京都杉並区阿佐谷南三丁目36-3,139.635868,35.704818,ＪＲ,中央本線（東京-塩尻）
荻窪,31-40分,38分,乗換1回,ＪＲ中央本線（東京-塩尻）,荻窪,荻窪,杉並区上荻１丁目,139.620109,35.704523,ＪＲ,中央本線（東京-塩尻）
南千住〔日比谷線〕,31-40分,32分,乗換1回,東京メトロ日比谷線,南千住,南千住,荒川区南千住４丁目,139.7994,35.734033,東京メトロ,日比谷線
北千住,31-40分,35分,乗換1回,東京メトロ日比谷線,北千住,北千住,足立区千住旭町,139.804872,35.749677,東京メトロ,日比谷線
北参道,31-40分,32分,乗換1回,東京メトロ副都心線,北参道,北参道,渋谷区千駄ヶ谷４丁目,139.705453,35.678459,東京メトロ,副都心線
東新宿,31-40分,36分,乗換1回,東京メトロ副都心線,東新宿,東新宿,新宿区新宿７-２７-３,139.707593,35.698915,東京メトロ,副都心線
西早稲田,31-40分,38分,乗換1回,東京メトロ副都心線,西早稲田,西早稲田,新宿区西早稲田二丁目,139.709101,35.708242,東京メトロ,副都心線
雑司が谷,31-40分,40分,乗換1回,東京メトロ副都心線,雑司が谷,雑司が谷,豊島区雑司が谷二丁目,139.714795,35.720233,東京メトロ,副都心線
江戸川橋,31-40分,33分,乗換1回,東京メトロ有楽町線,江戸川橋,江戸川橋,東京都文京区関口一丁目19-6,139.733538,35.709495,東京メトロ,有楽町線
護国寺,31-40分,35分,乗換1回,東京メトロ有楽町線,護国寺,護国寺,東京都文京区大塚五丁目40-8,139.72754,35.719044,東京メトロ,有楽町線
東池袋,31-40分,37分,乗換1回,東京メトロ有楽町線,東池袋,東池袋,東京都豊島区東池袋四丁目4-4,139.719546,35.725732,東京メトロ,有楽町線
桜新町,31-40分,33分,乗換1回,東急田園都市線,桜新町,桜新町,世田谷区桜新町２-８,139.644779,35.631666,東急,田園都市線
用賀,31-40分,35分,乗換1回,東急田園都市線,用賀,用賀,世田谷区用賀２-３９,139.633928,35.626436,東急,田園都市線
三河島,31-40分,33分,乗換1回,ＪＲ常磐線,三河島,三河島,荒川区西日暮里１丁目,139.777131,35.733383,ＪＲ,常磐線
南千住（常磐線）,31-40分,36分,乗換1回,ＪＲ常磐線,南千住,南千住,荒川区南千住４丁目,139.7994,35.734033,ＪＲ,常磐線
新小岩,31-40分,33分,乗換1回,ＪＲ総武本線（東京-銚子）,新小岩,新小岩,葛飾区新小岩１丁目,139.857777,35.716903,ＪＲ,総武本線（東京-銚子）
小岩,31-40分,36分,乗換1回,ＪＲ総武本線（東京-銚子）,小岩,小岩,江戸川区南小岩７丁目,139.881755,35.733207,ＪＲ,総武本線（東京-銚子）
市川,31-40分,39分,乗換1回,ＪＲ総武本線（東京-銚子）,市川,市川,市川市市川１丁目,139.908142,35.728903,ＪＲ,総武本線（東京-銚子）
東北沢,31-40分,33分,乗換1回,小田急小田原線,東北沢,東北沢,世田谷区北沢３丁目,139.673014,35.665379,不明,小田急小田原線
南新宿,31-40分,34分,乗換1回,小田急小田原線,南新宿,南新宿,渋谷区代々木２丁目,139.69867,35.683483,不明,小田急小田原線
参宮橋,31-40分,35分,乗換1回,小田急小田原線,参宮橋,参宮橋,渋谷区代々木４丁目,139.693568,35.678586,不明,小田急小田原線
世田谷代田,31-40分,36分,乗換1回,小田急小田原線,世田谷代田,世田谷代田,世田谷区代田２丁目,139.661557,35.65834,不明,小田急小田原線
代々木八幡,31-40分,37分,乗換1回,小田急小田原線,代々木八幡,代々木八幡,渋谷区代々木５丁目,139.688913,35.669715,不明,小田急小田原線
梅ヶ丘,31-40分,38分,乗換1回,小田急小田原線,梅ヶ丘,梅ヶ丘,東京都世田谷区梅丘,139.653628,35.656024,不明,小田急小田原線
豪徳寺,31-40分,39分,乗換1回,小田急小田原線,豪徳寺,豪徳寺,世田谷区豪徳寺１丁目,139.647381,35.653807,不明,小田急小田原線
栄町（東京都）,31-40分,34分,乗換1回,都電荒川線,栄町,栄町,北区栄町,139.742124,35.750909,不明,都電荒川線
飛鳥山,31-40分,35分,乗換1回,都電荒川線,飛鳥山,飛鳥山,北区滝野川１,139.737382,35.750248,不明,都電荒川線
梶原,31-40分,36分,乗換1回,都電荒川線,梶原,梶原,北区堀船３,139.747403,35.751162,不明,都電荒川線
滝野川一丁目,31-40分,36分,乗換1回,都電荒川線,滝野川一丁目,滝野川一丁目,北区滝野川１,139.735376,35.747374,不明,都電荒川線
荒川車庫前,31-40分,37分,乗換1回,都電荒川線,荒川車庫前,荒川車庫前,荒川区西尾久７,139.752617,35.750909,不明,都電荒川線
荒川七丁目,31-40分,38分,乗換2回,都電荒川線,荒川七丁目,荒川七丁目,荒川区荒川７,139.78417,35.741975,不明,都電荒川線
西ヶ原四丁目,31-40分,38分,乗換1回,都電荒川線,西ヶ原四丁目,西ヶ原四丁目,東京都北区西ヶ原四丁目,139.732779,35.744501,不明,都電荒川線
町屋二丁目,31-40分,38分,乗換2回,都電荒川線,町屋二丁目,町屋二丁目,荒川区荒川６,139.776625,35.743837,不明,都電荒川線
荒川一中前,31-40分,38分,乗換2回,都電荒川線,荒川一中前,荒川一中前,荒川区南千住１-１,139.788988,35.733659,不明,都電荒川線
向原（東京都）,31-40分,39分,乗換1回,都電荒川線,向原,向原,豊島区南大塚３,139.724894,35.728938,不明,都電荒川線
荒川区役所前,31-40分,39分,乗換2回,都電荒川線,荒川区役所前,荒川区役所前,荒川区荒川１,139.786456,35.73493,不明,都電荒川線
荒川二丁目,31-40分,39分,乗換2回,都電荒川線,荒川二丁目,荒川二丁目,荒川区荒川２,139.784696,35.738623,不明,都電荒川線
荒川遊園地前,31-40分,39分,乗換1回,都電荒川線,荒川遊園地前,荒川遊園地前,荒川区西尾久５,139.757767,35.750744,不明,都電荒川線
巣鴨新田,31-40分,39分,乗換1回,都電荒川線,巣鴨新田,巣鴨新田,豊島区西巣鴨１,139.727769,35.735488,不明,都電荒川線
東尾久三丁目,31-40分,39分,乗換2回,都電荒川線,東尾久三丁目,東尾久三丁目,荒川区東尾久３,139.774386,35.745398,不明,都電荒川線
庚申塚,31-40分,40分,乗換1回,都電荒川線,庚申塚,庚申塚,豊島区西巣鴨３,139.729743,35.739563,不明,都電荒川線
京成曳舟,31-40分,34分,乗換0回,京成押上線,京成曳舟,京成曳舟,墨田区京島１-３９-１,139.820012,35.718441,京成,押上線
八広,31-40分,36分,乗換0回,京成押上線,八広,八広,墨田区八広６-２５-２０,139.828738,35.727687,京成,押上線
四ツ木,31-40分,37分,乗換0回,京成押上線,四ツ木,四ツ木,葛飾区四つ木１-１-１,139.834918,35.731962,京成,押上線
青砥,31-40分,38分,乗換0回,京成押上線,青砥,青砥,東京都葛飾区青戸三丁目36番1号,139.856292,35.745883,京成,押上線
京成立石,31-40分,39分,乗換0回,京成押上線,京成立石,京成立石,葛飾区立石４-２４-１,139.848558,35.738281,京成,押上線
桜木町,31-40分,34分,乗換0回,ＪＲ根岸線,桜木町,桜木町,横浜市中区桜木町１丁目,139.630881,35.451112,ＪＲ,根岸線
関内,31-40分,36分,乗換0回,ＪＲ根岸線,関内,関内,横浜市中区港町１丁目,139.636984,35.443336,ＪＲ,根岸線
石川町,31-40分,38分,乗換0回,ＪＲ根岸線,石川町,石川町,横浜市中区石川町２丁目,139.642934,35.438808,ＪＲ,根岸線
山手,31-40分,40分,乗換0回,ＪＲ根岸線,山手,山手,横浜市中区大和町２丁目,139.646425,35.426891,ＪＲ,根岸線
新丸子,31-40分,34分,乗換1回,東急目黒線,新丸子,新丸子,川崎市中原区新丸子町７６６,139.661964,35.58049,東急,目黒線
元住吉,31-40分,37分,乗換1回,東急目黒線,元住吉,元住吉,川崎市中原区木月６７９,139.654668,35.565698,東急,目黒線
日吉（神奈川県）,31-40分,39分,乗換1回,東急目黒線,日吉,日吉,横浜市港北区日吉２-１-１,139.646944,35.5539,東急,目黒線
西巣鴨,31-40分,34分,乗換1回,都営三田線,西巣鴨,西巣鴨,豊島区西巣鴨３-２５-１３,139.728712,35.743508,都営,三田線
新板橋,31-40分,36分,乗換1回,都営三田線,新板橋,新板橋,板橋区板橋１-５３-１７,139.720101,35.748785,都営,三田線
板橋区役所前,31-40分,38分,乗換1回,都営三田線,板橋区役所前,板橋区役所前,板橋区板橋２-６６-１７,139.710102,35.751284,都営,三田線
板橋本町,31-40分,40分,乗換1回,都営三田線,板橋本町,板橋本町,板橋区大和町１７-１,139.705535,35.761339,都営,三田線
都庁前,31-40分,34分,乗換1回,都営大江戸線（環状部）,都庁前,都庁前,新宿区西新宿２-８-１,139.69257,35.690551,都営,大江戸線（環状部）
牛込神楽坂,31-40分,34分,乗換1回,都営大江戸線（環状部）,牛込神楽坂,牛込神楽坂,新宿区箪笥町１５,139.735802,35.700851,都営,大江戸線（環状部）
牛込柳町,31-40分,36分,乗換1回,都営大江戸線（環状部）,牛込柳町,牛込柳町,新宿区原町２-３２,139.725027,35.699518,都営,大江戸線（環状部）
若松河田,31-40分,38分,乗換1回,都営大江戸線（環状部）,若松河田,若松河田,新宿区河田町１０-１０,139.718184,35.699218,都営,大江戸線（環状部）
浅草（つくばエクスプレス）,31-40分,35分,乗換1回,つくばエクスプレス,浅草,浅草,東京都台東区花川戸一丁目4-1,139.798214,35.711883,つくばエクスプレス,
下落合（東京都）,31-40分,36分,乗換1回,西武新宿線,下落合,下落合,新宿区下落合１-１６-１,139.695391,35.715846,西武,新宿線
中井,31-40分,37分,乗換1回,西武新宿線,中井,中井,新宿区中落合１-１９-１,139.686967,35.715106,西武,新宿線
新井薬師前,31-40分,39分,乗換1回,西武新宿線,新井薬師前,新井薬師前,中野区上高田５-４３-２０,139.672582,35.715778,西武,新宿線
初台,31-40分,36分,乗換1回,京王新線,初台,初台,渋谷区初台１-５３-７,139.686354,35.68123,京王,新線
幡ヶ谷,31-40分,37分,乗換1回,京王新線,幡ヶ谷,幡ヶ谷,東京都渋谷区幡ヶ谷一丁目,139.676183,35.677061,京王,新線
西新宿五丁目,31-40分,36分,乗換1回,都営大江戸線（放射部）,西新宿五丁目,西新宿五丁目,新宿区西新宿５-２５-９,139.684304,35.689798,都営,大江戸線（放射部）
東大前,31-40分,36分,乗換2回,東京メトロ南北線,東大前,東大前,文京区向丘１-１９-２,139.758025,35.717633,東京メトロ,南北線
王子神谷,31-40分,37分,乗換1回,東京メトロ南北線,王子神谷,王子神谷,北区王子５-２-１１,139.735933,35.765172,東京メトロ,南北線
西ヶ原,31-40分,37分,乗換1回,東京メトロ南北線,西ヶ原,西ヶ原,東京都北区西ヶ原二丁目3-8,139.742322,35.746008,東京メトロ,南北線
本駒込,31-40分,37分,乗換1回,東京メトロ南北線,本駒込,本駒込,文京区向丘２-３７-１,139.753828,35.724155,東京メトロ,南北線
志茂,31-40分,39分,乗換1回,東京メトロ南北線,志茂,志茂,北区志茂２-１-１８,139.732599,35.777948,東京メトロ,南北線
赤土小学校前,31-40分,36分,乗換1回,都営日暮里・舎人ライナー,赤土小学校前,赤土小学校前,荒川区東尾久４-７-７,139.768989,35.742454,都営,日暮里・舎人ライナー
熊野前,31-40分,37分,乗換1回,都営日暮里・舎人ライナー,熊野前,熊野前,荒川区東尾久５,139.769204,35.749212,都営,日暮里・舎人ライナー
足立小台,31-40分,39分,乗換1回,都営日暮里・舎人ライナー,足立小台,足立小台,足立区小台１-２０-１,139.770381,35.754658,都営,日暮里・舎人ライナー
とうきょうスカイツリー[業平橋],31-40分,37分,乗換2回,東武伊勢崎線〔スカイツリーライン〕,とうきょうスカイツリー,とうきょうスカイツリー,墨田区押上１丁目,139.809332,35.71043,東武,伊勢崎線〔スカイツリーライン〕
小菅,31-40分,37分,乗換1回,東武伊勢崎線〔スカイツリーライン〕,小菅,小菅,足立区足立２丁目,139.812935,35.759039,東武,伊勢崎線〔スカイツリーライン〕
五反野,31-40分,39分,乗換1回,東武伊勢崎線〔スカイツリーライン〕,五反野,五反野,足立区足立３丁目,139.809643,35.765852,東武,伊勢崎線〔スカイツリーライン〕
笹塚,31-40分,37分,乗換1回,京王線,笹塚,笹塚,渋谷区笹塚１-５６-７,139.667251,35.673758,京王,線
代田橋,31-40分,38分,乗換1回,京王線,代田橋,代田橋,世田谷区大原２-１８-９,139.659413,35.671092,京王,線
西太子堂,31-40分,37分,乗換2回,東急世田谷線,西太子堂,西太子堂,世田谷区太子堂４-１０-３,139.666382,35.644545,東急,世田谷線
若林（東京都）,31-40分,39分,乗換2回,東急世田谷線,若林,若林,世田谷区若林４-３-１５,139.659911,35.645933,東急,世田谷線
亀戸水神,31-40分,38分,乗換2回,東武亀戸線,亀戸水神,亀戸水神,江東区亀戸８-５-１,139.833422,35.699976,東武,亀戸線
東あずま,31-40分,39分,乗換2回,東武亀戸線,東あずま,東あずま,墨田区立花４-２３-８,139.831883,35.707067,東武,亀戸線
北池袋,31-40分,39分,乗換1回,東武東上線,北池袋,北池袋,豊島区池袋本町１-３６-６,139.716749,35.741283,東武,東上線
下板橋,31-40分,40分,乗換1回,東武東上線,下板橋,下板橋,豊島区池袋本町４-４３-１１,139.714785,35.745721,東武,東上線
大口,31-40分,40分,乗換1回,ＪＲ横浜線,大口,大口,横浜市神奈川区大口通,139.646288,35.492375,ＪＲ,横浜線
板橋,31-40分,40分,乗換1回,ＪＲ埼京線,板橋,板橋,板橋区板橋１丁目,139.719507,35.745435,ＪＲ,埼京線
綾瀬,41-50分,41分,乗換1回,東京メトロ千代田線,綾瀬,綾瀬,足立区綾瀬３丁目,139.825019,35.762222,東京メトロ,千代田線
浦安（千葉県）,41-50分,41分,乗換1回,東京メトロ東西線,浦安,浦安,浦安市北栄１-１３-１,139.893193,35.665932,東京メトロ,東西線
南行徳,41-50分,42分,乗換1回,東京メトロ東西線,南行徳,南行徳,市川市相之川４-１７-１,139.902311,35.672687,東京メトロ,東西線
行徳,41-50分,45分,乗換1回,東京メトロ東西線,行徳,行徳,市川市行徳駅前２-４-１,139.914254,35.682686,東京メトロ,東西線
妙典,41-50分,48分,乗換1回,東京メトロ東西線,妙典,妙典,市川市富浜１-２-１０,139.924209,35.690935,東京メトロ,東西線
原木中山,41-50分,50分,乗換1回,東京メトロ東西線,原木中山,原木中山,船橋市本中山７-７-１,139.942029,35.703517,東京メトロ,東西線
曳舟,41-50分,41分,乗換2回,東武伊勢崎線〔スカイツリーライン〕（押上-曳舟）,曳舟,曳舟,墨田区東向島２丁目,139.816634,35.718418,東武,伊勢崎線〔スカイツリーライン〕（押上-曳舟）
葛西臨海公園,41-50分,41分,乗換1回,ＪＲ京葉線,葛西臨海公園,葛西臨海公園,江戸川区臨海町６丁目,139.861529,35.644392,ＪＲ,京葉線
舞浜,41-50分,44分,乗換1回,ＪＲ京葉線,舞浜,舞浜,浦安市舞浜,139.883714,35.636115,ＪＲ,京葉線
新浦安,41-50分,48分,乗換1回,ＪＲ京葉線,新浦安,新浦安,浦安市入船１丁目,139.912553,35.649526,ＪＲ,京葉線
京成高砂,41-50分,41分,乗換0回,京成本線,京成高砂,京成高砂,東京都葛飾区高砂五丁目28-1,139.866875,35.750932,京成,本線
京成小岩,41-50分,43分,乗換0回,京成本線,京成小岩,京成小岩,江戸川区北小岩２-１０-９,139.88371,35.742158,京成,本線
京成八幡,41-50分,47分,乗換0回,京成本線,京成八幡,京成八幡,市川市八幡３-２-１,139.92816,35.723811,京成,本線
東中山,41-50分,50分,乗換0回,京成本線,東中山,東中山,船橋市東中山２-２-２２,139.952683,35.714385,京成,本線
高津（神奈川県）,41-50分,41分,乗換1回,東急大井町線,高津,高津,川崎市高津区二子４-１-１,139.616934,35.603248,東急,大井町線
小村井,41-50分,41分,乗換2回,東武亀戸線,小村井,小村井,墨田区文花２-２０-１,139.827595,35.710316,東武,亀戸線
小台,41-50分,41分,乗換1回,都電荒川線,小台,小台,荒川区西尾久５,139.761779,35.750579,不明,都電荒川線
宮ノ前,41-50分,42分,乗換2回,都電荒川線,宮ノ前,宮ノ前,荒川区東尾久５,139.764955,35.750135,不明,都電荒川線
都電雑司ヶ谷,41-50分,42分,乗換2回,都電荒川線,都電雑司ヶ谷,都電雑司ヶ谷,東京都豊島区南池袋,139.718006,35.724261,不明,都電荒川線
学習院下,41-50分,44分,乗換2回,都電荒川線,学習院下,学習院下,豊島区高田２,139.71247,35.716248,不明,都電荒川線
面影橋,41-50分,45分,乗換2回,都電荒川線,面影橋,面影橋,新宿区西早稲田３,139.714444,35.712981,不明,都電荒川線
松陰神社前,41-50分,41分,乗換2回,東急世田谷線,松陰神社前,松陰神社前,世田谷区若林４-２１-１６,139.655211,35.643947,東急,世田谷線
世田谷,41-50分,42分,乗換2回,東急世田谷線,世田谷,世田谷,世田谷区世田谷４-９-６,139.650945,35.643564,東急,世田谷線
上町,41-50分,43分,乗換2回,東急世田谷線,上町,上町,世田谷区世田谷３-４-３,139.646276,35.643656,東急,世田谷線
宮の坂,41-50分,45分,乗換2回,東急世田谷線,宮の坂,宮の坂,世田谷区宮坂１-２４-７,139.64494,35.647508,東急,世田谷線
松原（東京都）,41-50分,45分,乗換2回,東急世田谷線,松原,松原,世田谷区松原４-１０-８,139.642,35.660048,東急,世田谷線
西永福,41-50分,41分,乗換1回,京王井の頭線,西永福,西永福,杉並区永福３-３６-１,139.634936,35.678918,京王,井の頭線
久我山,41-50分,42分,乗換1回,京王井の頭線,久我山,久我山,杉並区久我山４-１-１１,139.599211,35.688138,京王,井の頭線
浜田山,41-50分,42分,乗換1回,京王井の頭線,浜田山,浜田山,杉並区浜田山３-３１-２,139.627528,35.681603,京王,井の頭線
高井戸,41-50分,44分,乗換1回,京王井の頭線,高井戸,高井戸,杉並区高井戸西２-１-２６,139.615115,35.683253,京王,井の頭線
富士見ヶ丘,41-50分,45分,乗換1回,京王井の頭線,富士見ヶ丘,富士見ヶ丘,東京都杉並区久我山五丁目1番25号,139.607072,35.684805,京王,井の頭線
三鷹台,41-50分,49分,乗換1回,京王井の頭線,三鷹台,三鷹台,三鷹市井の頭１-３２-１,139.589298,35.692046,京王,井の頭線
井の頭公園,41-50分,50分,乗換1回,京王井の頭線,井の頭公園,井の頭公園,三鷹市井の頭３-３５-１２,139.583112,35.697304,京王,井の頭線
西荻窪,41-50分,41分,乗換1回,ＪＲ中央本線（東京-塩尻）,西荻窪,西荻窪,杉並区西荻南３丁目,139.599361,35.703842,ＪＲ,中央本線（東京-塩尻）
吉祥寺,41-50分,43分,乗換1回,ＪＲ中央本線（東京-塩尻）,吉祥寺,吉祥寺,東京都武蔵野市吉祥寺南町,139.579765,35.703119,ＪＲ,中央本線（東京-塩尻）
三鷹,41-50分,46分,乗換1回,ＪＲ中央本線（東京-塩尻）,三鷹,三鷹,東京都三鷹市下連雀三丁目46-1,139.560325,35.702683,ＪＲ,中央本線（東京-塩尻）
武蔵境,41-50分,48分,乗換1回,ＪＲ中央本線（東京-塩尻）,武蔵境,武蔵境,武蔵野市境１丁目,139.543402,35.702083,ＪＲ,中央本線（東京-塩尻）
東小金井,41-50分,50分,乗換1回,ＪＲ中央本線（東京-塩尻）,東小金井,東小金井,小金井市梶野町５丁目,139.524837,35.701643,ＪＲ,中央本線（東京-塩尻）
西川口,41-50分,41分,乗換0回,ＪＲ京浜東北線,西川口,西川口,川口市並木町２丁目,139.704312,35.815514,ＪＲ,京浜東北線
蕨,41-50分,43分,乗換0回,ＪＲ京浜東北線,蕨,蕨,蕨市中央１丁目,139.690357,35.827959,ＪＲ,京浜東北線
南浦和,41-50分,47分,乗換0回,ＪＲ京浜東北線,南浦和,南浦和,さいたま市南区南浦和２丁目,139.669125,35.847648,ＪＲ,京浜東北線
南阿佐ヶ谷,41-50分,41分,乗換1回,東京メトロ丸ノ内線,南阿佐ヶ谷,南阿佐ヶ谷,杉並区阿佐谷南１-１５-７,139.63576,35.699624,東京メトロ,丸ノ内線
本八幡〔ＪＲ〕,41-50分,41分,乗換1回,ＪＲ総武本線（東京-銚子）,本八幡,本八幡,市川市八幡２丁目,139.92741,35.720898,ＪＲ,総武本線（東京-銚子）
下総中山,41-50分,43分,乗換1回,ＪＲ総武本線（東京-銚子）,下総中山,下総中山,船橋市本中山２丁目,139.943092,35.714276,ＪＲ,総武本線（東京-銚子）
船橋,41-50分,45分,乗換1回,ＪＲ総武本線（東京-銚子）,船橋,船橋,船橋市本町７丁目,139.984707,35.701865,ＪＲ,総武本線（東京-銚子）
西船橋,41-50分,46分,乗換1回,ＪＲ総武本線（東京-銚子）,西船橋,西船橋,船橋市西船４丁目,139.959536,35.707283,ＪＲ,総武本線（東京-銚子）
津田沼,41-50分,49分,乗換1回,ＪＲ総武本線（東京-銚子）,津田沼,津田沼,習志野市津田沼１丁目,140.020179,35.691367,ＪＲ,総武本線（東京-銚子）
本蓮沼,41-50分,41分,乗換1回,都営三田線,本蓮沼,本蓮沼,板橋区蓮沼町１９-８,139.702324,35.768782,都営,三田線
志村坂上,41-50分,43分,乗換1回,都営三田線,志村坂上,志村坂上,板橋区志村１-１４-１３,139.69538,35.775725,都営,三田線
志村三丁目,41-50分,45分,乗換1回,都営三田線,志村三丁目,志村三丁目,板橋区志村３-２３-１,139.685937,35.777391,都営,三田線
蓮根,41-50分,47分,乗換1回,都営三田線,蓮根,蓮根,板橋区蓮根２-３１-３０,139.678993,35.784335,都営,三田線
西台,41-50分,49分,乗換1回,都営三田線,西台,西台,板橋区高島平９-１-１,139.673971,35.78699,都営,三田線
要町,41-50分,41分,乗換1回,東京メトロ有楽町線,要町,要町,東京都豊島区要町一丁目1-10,139.698715,35.73323,東京メトロ,有楽町線
千川,41-50分,43分,乗換1回,東京メトロ有楽町線,千川,千川,東京都豊島区要町三丁目10-7,139.689271,35.738229,東京メトロ,有楽町線
氷川台,41-50分,47分,乗換1回,東京メトロ有楽町線,氷川台,氷川台,東京都練馬区氷川台三丁目38-18,139.665567,35.74955,東京メトロ,有楽町線
平和台（東京都）,41-50分,49分,乗換1回,東京メトロ有楽町線,平和台,平和台,東京都練馬区早宮2-17-48,139.653762,35.757863,東京メトロ,有楽町線
扇大橋,41-50分,41分,乗換1回,都営日暮里・舎人ライナー,扇大橋,扇大橋,足立区扇２-２５-７,139.770808,35.763897,都営,日暮里・舎人ライナー
高野（東京都）,41-50分,42分,乗換1回,都営日暮里・舎人ライナー,高野,高野,足立区扇２-４５-１,139.770679,35.768359,都営,日暮里・舎人ライナー
江北（東京都）,41-50分,44分,乗換1回,都営日暮里・舎人ライナー,江北,江北,足立区江北４-３０-２７,139.770306,35.774021,都営,日暮里・舎人ライナー
西新井大師西,41-50分,45分,乗換1回,都営日暮里・舎人ライナー,西新井大師西,西新井大師西,足立区江北６-３０-２３,139.770094,35.781505,都営,日暮里・舎人ライナー
谷在家,41-50分,47分,乗換1回,都営日暮里・舎人ライナー,谷在家,谷在家,足立区谷在家３-２０-２３,139.770043,35.788774,都営,日暮里・舎人ライナー
舎人公園,41-50分,49分,乗換1回,都営日暮里・舎人ライナー,舎人公園,舎人公園,足立区舎人公園１-１０,139.770183,35.79623,都営,日暮里・舎人ライナー
新綱島,41-50分,41分,乗換1回,東急新横浜線,新綱島,新綱島,横浜市港北区綱島東1丁目8番1号,139.636167,35.536639,東急,新横浜線
下高井戸,41-50分,42分,乗換1回,京王線,下高井戸,下高井戸,世田谷区松原３-２９-１７,139.641372,35.66615,京王,線
桜上水,41-50分,44分,乗換1回,京王線,桜上水,桜上水,世田谷区桜上水５-２９-５２,139.63129,35.66768,京王,線
上北沢,41-50分,45分,乗換1回,京王線,上北沢,上北沢,世田谷区上北沢４-１４-３,139.62329,35.668857,京王,線
千歳烏山,41-50分,47分,乗換1回,京王線,千歳烏山,千歳烏山,世田谷区南烏山６-１-１,139.60067,35.667921,京王,線
八幡山,41-50分,48分,乗換1回,京王線,八幡山,八幡山,杉並区上高井戸１-１-１１,139.614927,35.669982,京王,線
芦花公園,41-50分,49分,乗換1回,京王線,芦花公園,芦花公園,世田谷区南烏山３-１-１６,139.608247,35.670479,京王,線
経堂,41-50分,42分,乗換2回,小田急小田原線,経堂,経堂,世田谷区経堂１丁目,139.635993,35.650991,不明,小田急小田原線
成城学園前,41-50分,47分,乗換2回,小田急小田原線,成城学園前,成城学園前,世田谷区成城６丁目,139.598958,35.640114,不明,小田急小田原線
千歳船橋,41-50分,47分,乗換1回,小田急小田原線,千歳船橋,千歳船橋,世田谷区船橋１丁目,139.624544,35.647616,不明,小田急小田原線
祖師ヶ谷大蔵,41-50分,49分,乗換1回,小田急小田原線,祖師ヶ谷大蔵,祖師ヶ谷大蔵,東京都世田谷区祖師谷1丁目,139.609659,35.643236,不明,小田急小田原線
戸部,41-50分,42分,乗換1回,京急本線,戸部,戸部,横浜市西区戸部本町４８-１１,139.61956,35.456631,京急,本線
日ノ出町,41-50分,43分,乗換1回,京急本線,日ノ出町,日ノ出町,横浜市中区日ノ出町１-３１,139.626696,35.445524,京急,本線
上大岡,41-50分,44分,乗換1回,京急本線,上大岡,上大岡,横浜市港南区上大岡西１-６-１,139.596552,35.409418,京急,本線
黄金町,41-50分,45分,乗換1回,京急本線,黄金町,黄金町,横浜市南区白金町１-１,139.62246,35.439694,京急,本線
南太田,41-50分,49分,乗換1回,京急本線,南太田,南太田,横浜市南区南太田１-２５-１,139.613408,35.436923,京急,本線
高島町,41-50分,42分,乗換1回,横浜市営ブルーライン,高島町,高島町,横浜市西区花咲町７-４１,139.623548,35.458804,横浜市営,ブルーライン
三ッ沢下町,41-50分,42分,乗換1回,横浜市営ブルーライン,三ッ沢下町,三ッ沢下町,横浜市神奈川区三ッ沢下町２-１６,139.61481,35.476512,横浜市営,ブルーライン
三ッ沢上町,41-50分,44分,乗換1回,横浜市営ブルーライン,三ッ沢上町,三ッ沢上町,横浜市神奈川区三ッ沢上町５-９,139.605395,35.476526,横浜市営,ブルーライン
伊勢佐木長者町,41-50分,46分,乗換1回,横浜市営ブルーライン,伊勢佐木長者町,伊勢佐木長者町,横浜市中区長者町５-４８,139.633176,35.441044,横浜市営,ブルーライン
片倉町,41-50分,46分,乗換1回,横浜市営ブルーライン,片倉町,片倉町,横浜市神奈川区片倉１-３３-７,139.606511,35.490205,横浜市営,ブルーライン
阪東橋,41-50分,47分,乗換1回,横浜市営ブルーライン,阪東橋,阪東橋,横浜市中区弥生町５-４８,139.624843,35.437434,横浜市営,ブルーライン
岸根公園,41-50分,48分,乗換1回,横浜市営ブルーライン,岸根公園,岸根公園,横浜市港北区篠原町１１２３,139.617065,35.496038,横浜市営,ブルーライン
吉野町,41-50分,49分,乗換1回,横浜市営ブルーライン,吉野町,吉野町,横浜市南区吉野町３-７,139.618455,35.435489,横浜市営,ブルーライン
十条（東京都）,41-50分,42分,乗換1回,ＪＲ埼京線,十条,十条,北区上十条１丁目,139.722233,35.760321,ＪＲ,埼京線
北赤羽,41-50分,43分,乗換1回,ＪＲ埼京線,北赤羽,北赤羽,北区赤羽北２丁目,139.70569,35.787007,ＪＲ,埼京線
浮間舟渡,41-50分,45分,乗換1回,ＪＲ埼京線,浮間舟渡,浮間舟渡,北区浮間４丁目,139.691341,35.791209,ＪＲ,埼京線
戸田公園,41-50分,48分,乗換1回,ＪＲ埼京線,戸田公園,戸田公園,戸田市本町４丁目,139.678203,35.807906,ＪＲ,埼京線
戸田（埼玉県）,41-50分,50分,乗換1回,ＪＲ埼京線,戸田,戸田,戸田市新曽字柳原,139.669548,35.817665,ＪＲ,埼京線
赤羽岩淵,41-50分,42分,乗換1回,東京メトロ南北線,赤羽岩淵,赤羽岩淵,北区赤羽１-５２-８,139.722103,35.783417,東京メトロ,南北線
船堀,41-50分,42分,乗換1回,都営新宿線,船堀,船堀,江戸川区船堀３-６-１,139.864258,35.683795,都営,新宿線
一之江,41-50分,45分,乗換1回,都営新宿線,一之江,一之江,江戸川区春江町４-２,139.882934,35.686055,都営,新宿線
瑞江,41-50分,47分,乗換1回,都営新宿線,瑞江,瑞江,江戸川区瑞江２-２-１,139.89761,35.693318,都営,新宿線
篠崎,41-50分,50分,乗換1回,都営新宿線,篠崎,篠崎,江戸川区篠崎町７-２７-１,139.903698,35.706017,都営,新宿線
大山（東京都）,41-50分,42分,乗換1回,東武東上線,大山,大山,板橋区大山町４-１,139.702589,35.748398,東武,東上線
中板橋,41-50分,46分,乗換1回,東武東上線,中板橋,中板橋,板橋区弥生町３３-１,139.694628,35.756214,東武,東上線
ときわ台（東京都）,41-50分,47分,乗換1回,東武東上線,ときわ台,ときわ台,板橋区常盤台１-４３-１,139.689015,35.758771,東武,東上線
上板橋,41-50分,49分,乗換1回,東武東上線,上板橋,上板橋,板橋区上板橋２-３６-７,139.67641,35.763596,東武,東上線
成増,41-50分,50分,乗換1回,東武東上線,成増,成増,板橋区成増２-１３-１,139.632708,35.777723,東武,東上線
梅島,41-50分,42分,乗換1回,東武伊勢崎線〔スカイツリーライン〕,梅島,梅島,足立区梅田７丁目,139.797916,35.772437,東武,伊勢崎線〔スカイツリーライン〕
西新井,41-50分,43分,乗換1回,東武伊勢崎線〔スカイツリーライン〕,西新井,西新井,足立区西新井栄町２丁目,139.790372,35.777323,東武,伊勢崎線〔スカイツリーライン〕
東向島,41-50分,43分,乗換2回,東武伊勢崎線〔スカイツリーライン〕,東向島,東向島,墨田区東向島４丁目,139.819306,35.724324,東武,伊勢崎線〔スカイツリーライン〕
堀切,41-50分,44分,乗換2回,東武伊勢崎線〔スカイツリーライン〕,堀切,堀切,足立区千住曙町,139.817727,35.742977,東武,伊勢崎線〔スカイツリーライン〕
鐘ヶ淵,41-50分,45分,乗換2回,東武伊勢崎線〔スカイツリーライン〕,鐘ヶ淵,鐘ヶ淵,東京都墨田区墨田5丁目,139.820344,35.733712,東武,伊勢崎線〔スカイツリーライン〕
竹ノ塚,41-50分,46分,乗換1回,東武伊勢崎線〔スカイツリーライン〕,竹ノ塚,竹ノ塚,足立区竹の塚６丁目,139.790788,35.794368,東武,伊勢崎線〔スカイツリーライン〕
谷塚,41-50分,49分,乗換1回,東武伊勢崎線〔スカイツリーライン〕,谷塚,谷塚,草加市谷塚町,139.801483,35.814926,東武,伊勢崎線〔スカイツリーライン〕
武蔵新城,41-50分,42分,乗換1回,ＪＲ南武線（川崎-立川）,武蔵新城,武蔵新城,川崎市中原区上新城２丁目,139.629419,35.587369,ＪＲ,南武線（川崎-立川）
津田山,41-50分,46分,乗換1回,ＪＲ南武線（川崎-立川）,津田山,津田山,川崎市高津区下作延,139.600002,35.604259,ＪＲ,南武線（川崎-立川）
久地,41-50分,48分,乗換1回,ＪＲ南武線（川崎-立川）,久地,久地,川崎市高津区久地,139.592714,35.610363,ＪＲ,南武線（川崎-立川）
宿河原,41-50分,50分,乗換1回,ＪＲ南武線（川崎-立川）,宿河原,宿河原,川崎市多摩区宿河原,139.579565,35.615429,ＪＲ,南武線（川崎-立川）
保土ヶ谷,41-50分,42分,乗換1回,ＪＲ横須賀線,保土ヶ谷,保土ヶ谷,横浜市保土ヶ谷区岩井町,139.599671,35.446746,ＪＲ,横須賀線
東戸塚,41-50分,46分,乗換1回,ＪＲ横須賀線,東戸塚,東戸塚,横浜市戸塚区品濃町,139.556794,35.430353,ＪＲ,横須賀線
浦和,41-50分,43分,乗換1回,ＪＲ宇都宮線〔東北本線〕・ＪＲ上野東京ライン,浦和,浦和,さいたま市浦和区高砂１丁目,139.657109,35.858496,ＪＲ,宇都宮線〔東北本線〕・ＪＲ上野東京ライン
さいたま新都心,41-50分,47分,乗換1回,ＪＲ宇都宮線〔東北本線〕・ＪＲ上野東京ライン,さいたま新都心,さいたま新都心,さいたま市大宮区吉敷町４丁目５７番地３,139.633587,35.893867,ＪＲ,宇都宮線〔東北本線〕・ＪＲ上野東京ライン
大宮（埼玉県）,41-50分,49分,乗換1回,ＪＲ宇都宮線〔東北本線〕・ＪＲ上野東京ライン,大宮,大宮,さいたま市大宮区錦町,139.62405,35.906439,ＪＲ,宇都宮線〔東北本線〕・ＪＲ上野東京ライン
亀有,41-50分,43分,乗換1回,ＪＲ常磐線,亀有,亀有,葛飾区亀有３,139.847573,35.766527,ＪＲ,常磐線
金町（東京都）,41-50分,46分,乗換1回,ＪＲ常磐線,金町,金町,葛飾区金町６丁目,139.870482,35.769582,ＪＲ,常磐線
松戸,41-50分,48分,乗換1回,ＪＲ常磐線,松戸,松戸,松戸市松戸,139.900779,35.784472,ＪＲ,常磐線
菊名,41-50分,43分,乗換1回,ＪＲ横浜線,菊名,菊名,横浜市港北区菊名７丁目,139.630147,35.509749,ＪＲ,横浜線
新横浜,41-50分,45分,乗換1回,ＪＲ横浜線,新横浜,新横浜,横浜市港北区篠原町,139.617348,35.506824,ＪＲ,横浜線
小机,41-50分,47分,乗換1回,ＪＲ横浜線,小机,小机,横浜市港北区小机町,139.599787,35.508533,ＪＲ,横浜線
戸塚,41-50分,43分,乗換1回,ＪＲ東海道本線（東京-熱海）,戸塚,戸塚,横浜市戸塚区戸塚町,139.534282,35.400432,ＪＲ,東海道本線（東京-熱海）
大船,41-50分,49分,乗換1回,ＪＲ東海道本線（東京-熱海）,大船,大船,鎌倉市大船１丁目,139.531127,35.353466,ＪＲ,東海道本線（東京-熱海）
根岸（神奈川県）,41-50分,43分,乗換0回,ＪＲ根岸線,根岸,根岸,横浜市磯子区東町,139.636034,35.415887,ＪＲ,根岸線
磯子,41-50分,46分,乗換0回,ＪＲ根岸線,磯子,磯子,横浜市磯子区森１丁目,139.617916,35.399881,ＪＲ,根岸線
新杉田,41-50分,48分,乗換0回,ＪＲ根岸線,新杉田,新杉田,横浜市磯子区新杉田町,139.619483,35.386863,ＪＲ,根岸線
沼袋,41-50分,43分,乗換1回,西武新宿線,沼袋,沼袋,中野区沼袋１-３５-１,139.663841,35.719458,西武,新宿線
鷺ノ宮,41-50分,45分,乗換1回,西武新宿線,鷺ノ宮,鷺ノ宮,中野区鷺宮３-１５-１,139.63892,35.722605,西武,新宿線
野方,41-50分,45分,乗換1回,西武新宿線,野方,野方,中野区野方６-３-３,139.652733,35.719658,西武,新宿線
都立家政,41-50分,46分,乗換1回,西武新宿線,都立家政,都立家政,中野区鷺宮１-１６-１,139.644839,35.722313,西武,新宿線
上石神井,41-50分,49分,乗換1回,西武新宿線,上石神井,上石神井,練馬区上石神井１-２-４５,139.592266,35.726189,西武,新宿線
下井草,41-50分,50分,乗換1回,西武新宿線,下井草,下井草,杉並区下井草２-４４-１０,139.624688,35.723852,西武,新宿線
椎名町,41-50分,43分,乗換1回,西武池袋線,椎名町,椎名町,豊島区長崎１-１-２２,139.694363,35.726572,西武,池袋線
東長崎,41-50分,45分,乗換1回,西武池袋線,東長崎,東長崎,豊島区長崎５-１-１,139.683294,35.73003,西武,池袋線
江古田,41-50分,49分,乗換1回,西武池袋線,江古田,江古田,練馬区旭丘１-７８-７,139.672814,35.737557,西武,池袋線
浜川崎,41-50分,43分,乗換1回,ＪＲ鶴見線（鶴見-扇町）,浜川崎,浜川崎,川崎市川崎区南渡田町,139.713483,35.510428,ＪＲ,鶴見線（鶴見-扇町）
昭和,41-50分,45分,乗換1回,ＪＲ鶴見線（鶴見-扇町）,昭和,昭和,川崎市川崎区扇町,139.723897,35.506836,ＪＲ,鶴見線（鶴見-扇町）
扇町（神奈川県）,41-50分,47分,乗換1回,ＪＲ鶴見線（鶴見-扇町）,扇町,扇町,川崎市川崎区扇町,139.722147,35.501452,ＪＲ,鶴見線（鶴見-扇町）
平沼橋,41-50分,43分,乗換1回,相鉄本線,平沼橋,平沼橋,横浜市西区西平沼町３-７,139.616897,35.460355,相鉄,本線
西横浜,41-50分,45分,乗換1回,相鉄本線,西横浜,西横浜,横浜市西区西平沼町８-１,139.608745,35.453437,相鉄,本線
天王町,41-50分,46分,乗換1回,相鉄本線,天王町,天王町,横浜市保土ヶ谷区天王町２-４５-５,139.602554,35.453984,相鉄,本線
星川（神奈川県）,41-50分,50分,乗換1回,相鉄本線,星川,星川,横浜市保土ヶ谷区星川１-１-１,139.594816,35.458634,相鉄,本線
新高島,41-50分,43分,乗換1回,横浜高速鉄道みなとみらい線,新高島,新高島,横浜市西区高島１-３,139.626499,35.46192,不明,横浜高速鉄道みなとみらい線
みなとみらい,41-50分,44分,乗換1回,横浜高速鉄道みなとみらい線,みなとみらい,みなとみらい,横浜市西区みなとみらい３-５,139.632386,35.458028,不明,横浜高速鉄道みなとみらい線
馬車道,41-50分,46分,乗換1回,横浜高速鉄道みなとみらい線,馬車道,馬車道,横浜市中区本町５-４９,139.636175,35.450135,不明,横浜高速鉄道みなとみらい線
日本大通り,41-50分,47分,乗換1回,横浜高速鉄道みなとみらい線,日本大通り,日本大通り,横浜市中区日本大通９,139.642608,35.446821,不明,横浜高速鉄道みなとみらい線
元町・中華街,41-50分,49分,乗換1回,横浜高速鉄道みなとみらい線,元町・中華街,元町・中華街,横浜市中区山下町６５,139.650446,35.44243,不明,横浜高速鉄道みなとみらい線
小竹向原,41-50分,44分,乗換1回,東京メトロ副都心線,小竹向原,小竹向原,東京都練馬区小竹町二丁目16-15,139.678572,35.743803,東京メトロ,副都心線
中野新橋,41-50分,44分,乗換2回,東京メトロ丸ノ内線（中野坂上-方南町）,中野新橋,中野新橋,中野区弥生町２-２６-８,139.673997,35.692123,東京メトロ,丸ノ内線（中野坂上-方南町）
中野富士見町,41-50分,46分,乗換2回,東京メトロ丸ノ内線（中野坂上-方南町）,中野富士見町,中野富士見町,中野区弥生町５-２４-４,139.666933,35.690514,東京メトロ,丸ノ内線（中野坂上-方南町）
方南町,41-50分,48分,乗換2回,東京メトロ丸ノ内線（中野坂上-方南町）,方南町,方南町,杉並区堀ノ内１-１-１,139.656498,35.683496,東京メトロ,丸ノ内線（中野坂上-方南町）
青井,41-50分,44分,乗換1回,つくばエクスプレス,青井,青井,足立区青井三丁目,139.82038,35.771782,つくばエクスプレス,
六町,41-50分,46分,乗換1回,つくばエクスプレス,六町,六町,足立区六町四丁目,139.821816,35.784963,つくばエクスプレス,
八潮,41-50分,47分,乗換1回,つくばエクスプレス,八潮,八潮,八潮市大瀬８２６,139.845017,35.807905,つくばエクスプレス,
三郷中央,41-50分,50分,乗換1回,つくばエクスプレス,三郷中央,三郷中央,三郷市谷中,139.878344,35.824514,つくばエクスプレス,
梶が谷,41-50分,45分,乗換1回,東急田園都市線,梶が谷,梶が谷,川崎市高津区末長字姿見台８５,139.605885,35.593963,東急,田園都市線
鷺沼,41-50分,46分,乗換1回,東急田園都市線,鷺沼,鷺沼,川崎市宮前区鷺沼３-１-１,139.573268,35.579762,東急,田園都市線
宮崎台,41-50分,47分,乗換1回,東急田園都市線,宮崎台,宮崎台,川崎市宮前区宮崎２-１０-１２,139.591313,35.587228,東急,田園都市線
たまプラーザ,41-50分,48分,乗換1回,東急田園都市線,たまプラーザ,たまプラーザ,横浜市青葉区美しが丘１-３,139.558447,35.577427,東急,田園都市線
あざみ野,41-50分,49分,乗換1回,東急田園都市線,あざみ野,あざみ野,横浜市青葉区あざみ野２-１-１,139.553462,35.568645,東急,田園都市線
宮前平,41-50分,49分,乗換1回,東急田園都市線,宮前平,宮前平,川崎市宮前区宮前１-１１-１,139.581983,35.584951,東急,田園都市線
川崎新町,41-50分,45分,乗換2回,ＪＲ南武線（尻手-浜川崎）,川崎新町,川崎新町,川崎市川崎区渡田山王町,139.699348,35.518234,ＪＲ,南武線（尻手-浜川崎）
小田栄,41-50分,46分,乗換2回,ＪＲ南武線（尻手-浜川崎）,小田栄,小田栄,川崎市川崎区小田栄,139.704944,35.5145,ＪＲ,南武線（尻手-浜川崎）
反町,41-50分,45分,乗換1回,東急東横線,反町,反町,横浜市神奈川区反町１-１,139.625337,35.47474,東急,東横線
東白楽,41-50分,47分,乗換1回,東急東横線,東白楽,東白楽,横浜市神奈川区白楽１２-１,139.629364,35.483523,東急,東横線
白楽,41-50分,48分,乗換1回,東急東横線,白楽,白楽,横浜市神奈川区白楽１００,139.627875,35.489555,東急,東横線
綱島,41-50分,49分,乗換2回,東急東横線,綱島,綱島,横浜市港北区綱島西１-１-８,139.63491,35.536906,東急,東横線
妙蓮寺,41-50分,50分,乗換1回,東急東横線,妙蓮寺,妙蓮寺,横浜市港北区菊名１-１-１,139.633194,35.498779,東急,東横線
落合南長崎,41-50分,45分,乗換1回,都営大江戸線（放射部）,落合南長崎,落合南長崎,新宿区西落合３-１-１８,139.683303,35.723608,都営,大江戸線（放射部）
新江古田,41-50分,47分,乗換1回,都営大江戸線（放射部）,新江古田,新江古田,中野区江原町２-２９-１３,139.670653,35.732538,都営,大江戸線（放射部）
川口元郷,41-50分,45分,乗換1回,埼玉高速鉄道線,川口元郷,川口元郷,川口市元郷１-２-１５,139.730043,35.800187,埼玉高速鉄道,線
南鳩ヶ谷,41-50分,47分,乗換1回,埼玉高速鉄道線,南鳩ヶ谷,南鳩ヶ谷,埼玉県川口市南鳩ヶ谷五丁目,139.736059,35.816839,埼玉高速鉄道,線
鳩ヶ谷,41-50分,50分,乗換1回,埼玉高速鉄道線,鳩ヶ谷,鳩ヶ谷,埼玉県川口市大字里1650-1,139.735967,35.830859,埼玉高速鉄道,線
北綾瀬,41-50分,46分,乗換1回,東京メトロ千代田線（綾瀬-北綾瀬）,北綾瀬,北綾瀬,足立区谷中２丁目,139.832035,35.777117,東京メトロ,千代田線（綾瀬-北綾瀬）
新柴又,41-50分,47分,乗換0回,京成成田空港線・北総鉄道線,新柴又,新柴又,葛飾区柴又５-７-１,139.879376,35.75101,京成,成田空港線・北総鉄道線
矢切,41-50分,49分,乗換0回,京成成田空港線・北総鉄道線,矢切,矢切,松戸市下矢切字入山津１２０,139.899742,35.757503,京成,成田空港線・北総鉄道線
日吉本町,41-50分,47分,乗換2回,横浜市営グリーンライン,日吉本町,日吉本町,横浜市港北区日吉本町５丁目３番,139.633554,35.549883,横浜市営,グリーンライン
高田（神奈川県）,41-50分,49分,乗換2回,横浜市営グリーンライン,高田,高田,横浜市港北区高田東３丁目１番先,139.619944,35.549713,横浜市営,グリーンライン
新桜台,41-50分,48分,乗換1回,西武有楽町線,新桜台,新桜台,練馬区桜台１-２８-１１,139.6683,35.74077,西武,有楽町線
練馬,41-50分,49分,乗換1回,西武有楽町線,練馬,練馬,練馬区練馬１-３-５,139.654368,35.737893,西武,有楽町線
新芝浦,41-50分,49分,乗換1回,ＪＲ鶴見線（浅野-海芝浦）,新芝浦,新芝浦,横浜市鶴見区末広町２丁目,139.7001,35.491914,ＪＲ,鶴見線（浅野-海芝浦）
羽沢横浜国大,41-50分,49分,乗換1回,ＪＲ相鉄直通線,羽沢横浜国大,羽沢横浜国大,横浜市神奈川区羽沢南二丁目471,139.586389,35.481389,ＪＲ,相鉄直通線
井荻,51-60分,51分,乗換1回,西武新宿線,井荻,井荻,杉並区下井草５-２３-１５,139.615303,35.72469,西武,新宿線
上井草,51-60分,53分,乗換1回,西武新宿線,上井草,上井草,杉並区上井草３-３２-１,139.602937,35.725326,西武,新宿線
田無,51-60分,54分,乗換1回,西武新宿線,田無,田無,西東京市田無町４-１-１,139.539259,35.727307,西武,新宿線
花小金井,51-60分,57分,乗換1回,西武新宿線,花小金井,花小金井,小平市花小金井１-１０-５,139.513228,35.726129,西武,新宿線
武蔵関,51-60分,57分,乗換2回,西武新宿線,武蔵関,武蔵関,練馬区関町北２-２９-１,139.576417,35.7276,西武,新宿線
東伏見,51-60分,59分,乗換2回,西武新宿線,東伏見,東伏見,西東京市東伏見２-５-１,139.563529,35.728761,西武,新宿線
小平,51-60分,60分,乗換1回,西武新宿線,小平,小平,小平市美園町１-３４-１,139.488491,35.736963,西武,新宿線
井土ヶ谷,51-60分,51分,乗換1回,京急本線,井土ヶ谷,井土ヶ谷,横浜市南区井土ヶ谷中町,139.60061,35.433895,京急,本線
金沢文庫,51-60分,51分,乗換1回,京急本線,金沢文庫,金沢文庫,横浜市金沢区谷津町３８４,139.621606,35.342966,京急,本線
金沢八景（京急線）,51-60分,53分,乗換1回,京急本線,金沢八景,金沢八景,横浜市金沢区瀬戸１５-１,139.62018,35.331223,京急,本線
弘明寺（京急線）,51-60分,53分,乗換1回,京急本線,弘明寺,弘明寺,横浜市南区弘明寺町267,139.596791,35.42437,京急,本線
屏風浦,51-60分,55分,乗換2回,京急本線,屏風浦,屏風浦,横浜市磯子区森３-１８-６,139.610387,35.394176,京急,本線
杉田（神奈川県）,51-60分,56分,乗換2回,京急本線,杉田,杉田,横浜市磯子区杉田２-１-９,139.615734,35.383796,京急,本線
京急富岡,51-60分,59分,乗換2回,京急本線,京急富岡,京急富岡,横浜市金沢区富岡西７-１-１,139.629772,35.366743,京急,本線
横須賀中央,51-60分,60分,乗換1回,京急本線,横須賀中央,横須賀中央,横須賀市若松町２-２５,139.670217,35.27858,京急,本線
能見台,51-60分,60分,乗換2回,京急本線,能見台,能見台,横浜市金沢区能見台通２-１,139.629233,35.360528,京急,本線
海芝浦,51-60分,51分,乗換1回,ＪＲ鶴見線（浅野-海芝浦）,海芝浦,海芝浦,横浜市鶴見区末広町２丁目,139.700603,35.486073,ＪＲ,鶴見線（浅野-海芝浦）
鴨居,51-60分,51分,乗換1回,ＪＲ横浜線,鴨居,鴨居,横浜市緑区鴨居町,139.56707,35.510955,ＪＲ,横浜線
中山（神奈川県）,51-60分,54分,乗換1回,ＪＲ横浜線,中山,中山,横浜市緑区寺山町,139.539692,35.514745,ＪＲ,横浜線
十日市場（神奈川県）,51-60分,57分,乗換1回,ＪＲ横浜線,十日市場,十日市場,横浜市緑区十日市場町中里,139.51669,35.526254,ＪＲ,横浜線
高島平,51-60分,51分,乗換1回,都営三田線,高島平,高島平,板橋区高島平８-２-１,139.661216,35.789056,都営,三田線
新高島平,51-60分,52分,乗換1回,都営三田線,新高島平,新高島平,板橋区高島平７-１,139.654275,35.790189,都営,三田線
西高島平,51-60分,54分,乗換1回,都営三田線,西高島平,西高島平,板橋区高島平６-１,139.64594,35.791833,都営,三田線
桜台（東京都）,51-60分,51分,乗換1回,西武池袋線,桜台,桜台,練馬区桜台１-５-１,139.662602,35.738797,西武,池袋線
中村橋,51-60分,53分,乗換1回,西武池袋線,中村橋,中村橋,練馬区中村北４-２-１,139.637456,35.736767,西武,池袋線
石神井公園,51-60分,55分,乗換1回,西武池袋線,石神井公園,石神井公園,練馬区石神井町３-２３-１０,139.606981,35.743563,西武,池袋線
富士見台,51-60分,55分,乗換1回,西武池袋線,富士見台,富士見台,練馬区貫井３-７-４,139.62969,35.735867,西武,池袋線
練馬高野台,51-60分,57分,乗換1回,西武池袋線,練馬高野台,練馬高野台,練馬区高野台１-７-２７,139.616749,35.740622,西武,池袋線
ひばりヶ丘（東京都）,51-60分,60分,乗換1回,西武池袋線,ひばりヶ丘,ひばりヶ丘,東京都西東京市住吉町三丁目,139.545852,35.751485,西武,池袋線
大泉学園,51-60分,60分,乗換1回,西武池袋線,大泉学園,大泉学園,練馬区東大泉１-２９-７,139.586732,35.749406,西武,池袋線
蒔田,51-60分,51分,乗換1回,横浜市営ブルーライン,蒔田,蒔田,横浜市南区宮元町３-４６,139.610123,35.429935,横浜市営,ブルーライン
踊場,51-60分,51分,乗換2回,横浜市営ブルーライン,踊場,踊場,横浜市泉区中田南１-２-１,139.518058,35.405922,横浜市営,ブルーライン
弘明寺（横浜市営）,51-60分,52分,乗換1回,横浜市営ブルーライン,弘明寺,弘明寺,横浜市南区弘明寺町267,139.596791,35.42437,横浜市営,ブルーライン
港南中央,51-60分,52分,乗換2回,横浜市営ブルーライン,港南中央,港南中央,横浜市港南区港南中央通１０-B-１,139.590958,35.401049,横浜市営,ブルーライン
舞岡,51-60分,52分,乗換2回,横浜市営ブルーライン,舞岡,舞岡,横浜市戸塚区舞岡町７７１,139.551509,35.402685,横浜市営,ブルーライン
下永谷,51-60分,53分,乗換2回,横浜市営ブルーライン,下永谷,下永谷,横浜市港南区日限山１-５８-２７,139.559389,35.402677,横浜市営,ブルーライン
中田（神奈川県）,51-60分,53分,乗換2回,横浜市営ブルーライン,中田,中田,横浜市泉区中田南３-１-５,139.511301,35.411161,横浜市営,ブルーライン
北新横浜,51-60分,53分,乗換1回,横浜市営ブルーライン,北新横浜,北新横浜,横浜市港北区新羽町５３９-１,139.612818,35.519271,横浜市営,ブルーライン
上永谷,51-60分,55分,乗換2回,横浜市営ブルーライン,上永谷,上永谷,横浜市港南区丸山台１-１-１,139.572713,35.401391,横浜市営,ブルーライン
新羽,51-60分,55分,乗換1回,横浜市営ブルーライン,新羽,新羽,横浜市港北区新羽町１２８５-１,139.612065,35.527701,横浜市営,ブルーライン
立場,51-60分,55分,乗換2回,横浜市営ブルーライン,立場,立場,横浜市泉区中田西１-１-３０,139.500177,35.414296,横浜市営,ブルーライン
下飯田,51-60分,57分,乗換2回,横浜市営ブルーライン,下飯田,下飯田,横浜市泉区下飯田町８２９-１,139.483195,35.403503,横浜市営,ブルーライン
仲町台,51-60分,58分,乗換1回,横浜市営ブルーライン,仲町台,仲町台,横浜市都筑区仲町台１-１-１,139.589715,35.535258,横浜市営,ブルーライン
中川（神奈川県）,51-60分,59分,乗換2回,横浜市営ブルーライン,中川,中川,横浜市都筑区中川１-１-１,139.569846,35.562973,横浜市営,ブルーライン
湘南台,51-60分,60分,乗換2回,横浜市営ブルーライン,湘南台,湘南台,藤沢市湘南台２-１５,139.466451,35.396488,横浜市営,ブルーライン
大川,51-60分,51分,乗換1回,ＪＲ鶴見線（安善-大川）,大川,大川,川崎市川崎区大川町,139.711038,35.495646,ＪＲ,鶴見線（安善-大川）
大倉山（神奈川県）,51-60分,51分,乗換2回,東急東横線,大倉山,大倉山,横浜市港北区大倉山一丁目1-1,139.629808,35.52243,東急,東横線
登戸,51-60分,51分,乗換2回,小田急小田原線,登戸,登戸,川崎市多摩区登戸,139.570028,35.620889,不明,小田急小田原線
向ヶ丘遊園,51-60分,52分,乗換2回,小田急小田原線,向ヶ丘遊園,向ヶ丘遊園,神奈川県川崎市多摩区登戸,139.564719,35.617273,不明,小田急小田原線
喜多見,51-60分,53分,乗換1回,小田急小田原線,喜多見,喜多見,世田谷区喜多見９丁目,139.587445,35.636697,不明,小田急小田原線
狛江,51-60分,55分,乗換1回,小田急小田原線,狛江,狛江,狛江市東和泉１丁目,139.577127,35.632001,不明,小田急小田原線
和泉多摩川,51-60分,57分,乗換1回,小田急小田原線,和泉多摩川,和泉多摩川,狛江市東和泉４丁目,139.573695,35.627349,不明,小田急小田原線
新百合ヶ丘,51-60分,58分,乗換2回,小田急小田原線,新百合ヶ丘,新百合ヶ丘,川崎市麻生区万福寺一丁目18番1号,139.507608,35.603705,不明,小田急小田原線
東船橋,51-60分,51分,乗換1回,ＪＲ総武本線（東京-銚子）,東船橋,東船橋,船橋市東船橋２丁目,140.00393,35.699811,ＪＲ,総武本線（東京-銚子）
稲毛,51-60分,57分,乗換1回,ＪＲ総武本線（東京-銚子）,稲毛,稲毛,千葉市稲毛区稲毛東３丁目,140.09256,35.637264,ＪＲ,総武本線（東京-銚子）
幕張本郷,51-60分,57分,乗換1回,ＪＲ総武本線（東京-銚子）,幕張本郷,幕張本郷,千葉市花見川区幕張本郷１丁目,140.042241,35.672664,ＪＲ,総武本線（東京-銚子）
千葉,51-60分,60分,乗換1回,ＪＲ総武本線（東京-銚子）,千葉,千葉,千葉市中央区新千葉１丁目,140.112837,35.613425,ＪＲ,総武本線（東京-銚子）
幕張,51-60分,60分,乗換1回,ＪＲ総武本線（東京-銚子）,幕張,幕張,千葉市花見川区幕張町５丁目,140.057899,35.6594,ＪＲ,総武本線（東京-銚子）
東武練馬,51-60分,51分,乗換1回,東武東上線,東武練馬,東武練馬,板橋区徳丸２-２-１４,139.661964,35.768698,東武,東上線
和光市,51-60分,52分,乗換1回,東武東上線,和光市,和光市,埼玉県和光市本町4-6,139.612434,35.788507,東武,東上線
下赤塚,51-60分,53分,乗換1回,東武東上線,下赤塚,下赤塚,板橋区赤塚新町１-２３-１,139.644482,35.770558,東武,東上線
朝霞,51-60分,54分,乗換1回,東武東上線,朝霞,朝霞,朝霞市本町２-１３-５２,139.600321,35.796736,東武,東上線
朝霞台,51-60分,56分,乗換1回,東武東上線,朝霞台,朝霞台,朝霞市東弁財１-４-１７,139.587189,35.814328,東武,東上線
志木,51-60分,59分,乗換1回,東武東上線,志木,志木,新座市東北２-３８-１,139.575367,35.822105,東武,東上線
北浦和,51-60分,51分,乗換2回,ＪＲ京浜東北線,北浦和,北浦和,さいたま市浦和区北浦和３丁目,139.645951,35.872053,ＪＲ,京浜東北線
与野,51-60分,54分,乗換2回,ＪＲ京浜東北線,与野,与野,さいたま市浦和区上木崎１丁目,139.639085,35.884393,ＪＲ,京浜東北線
北国分,51-60分,51分,乗換0回,京成成田空港線・北総鉄道線,北国分,北国分,市川市堀之内３-２１-１,139.914252,35.762916,京成,成田空港線・北総鉄道線
秋山,51-60分,53分,乗換0回,京成成田空港線・北総鉄道線,秋山,秋山,松戸市秋山字前原１１２,139.930723,35.765299,京成,成田空港線・北総鉄道線
東松戸,51-60分,53分,乗換1回,京成成田空港線・北総鉄道線,東松戸,東松戸,千葉県松戸市紙敷,139.943848,35.770611,京成,成田空港線・北総鉄道線
松飛台,51-60分,57分,乗換0回,京成成田空港線・北総鉄道線,松飛台,松飛台,松戸市紙敷１-２９-５,139.957739,35.775377,京成,成田空港線・北総鉄道線
新鎌ヶ谷,51-60分,57分,乗換1回,京成成田空港線・北総鉄道線,新鎌ヶ谷,新鎌ヶ谷,千葉県鎌ヶ谷市新鎌ヶ谷一丁目13-1,139.999455,35.780221,京成,成田空港線・北総鉄道線
大町（千葉県）,51-60分,59分,乗換0回,京成成田空港線・北総鉄道線,大町,大町,市川市大町１７５,139.973567,35.775103,京成,成田空港線・北総鉄道線
洋光台,51-60分,51分,乗換0回,ＪＲ根岸線,洋光台,洋光台,横浜市磯子区洋光台３丁目,139.596852,35.378785,ＪＲ,根岸線
港南台,51-60分,54分,乗換0回,ＪＲ根岸線,港南台,港南台,横浜市港南区港南台３丁目,139.576243,35.375183,ＪＲ,根岸線
本郷台,51-60分,57分,乗換0回,ＪＲ根岸線,本郷台,本郷台,横浜市栄区小菅ヶ谷町,139.550159,35.36787,ＪＲ,根岸線
舎人,51-60分,51分,乗換1回,都営日暮里・舎人ライナー,舎人,舎人,足立区舎人１-１６-１５,139.770108,35.8057,都営,日暮里・舎人ライナー
見沼代親水公園,51-60分,52分,乗換1回,都営日暮里・舎人ライナー,見沼代親水公園,見沼代親水公園,足立区舎人２-２１-１３,139.770719,35.814544,都営,日暮里・舎人ライナー
東山田,51-60分,51分,乗換2回,横浜市営グリーンライン,東山田,東山田,横浜市都筑区東山田町３３９番地,139.604369,35.554302,横浜市営,グリーンライン
北山田（神奈川県）,51-60分,53分,乗換2回,横浜市営グリーンライン,北山田,北山田,横浜市都筑区北山田１丁目６番先,139.592258,35.561077,横浜市営,グリーンライン
センター北,51-60分,56分,乗換2回,横浜市営グリーンライン,センター北,センター北,横浜市都筑区中川中央１-１-１,139.578457,35.55353,横浜市営,グリーンライン
センター南,51-60分,58分,乗換2回,横浜市営グリーンライン,センター南,センター南,横浜市都筑区茅ヶ崎中央１-１,139.574291,35.545476,横浜市営,グリーンライン
地下鉄赤塚,51-60分,52分,乗換1回,東京メトロ有楽町線,地下鉄赤塚,地下鉄赤塚,東京都練馬区北町八丁目37-16,139.644021,35.769939,東京メトロ,有楽町線
地下鉄成増,51-60分,54分,乗換1回,東京メトロ有楽町線,地下鉄成増,地下鉄成増,東京都板橋区成増二丁目11-3,139.631497,35.776557,東京メトロ,有楽町線
江戸川,51-60分,52分,乗換1回,京成本線,江戸川,江戸川,江戸川区北小岩３-２４-１５,139.896226,35.737723,京成,本線
海神,51-60分,54分,乗換2回,京成本線,海神,海神,船橋市海神５-１-２２,139.971888,35.705888,京成,本線
鬼越,51-60分,54分,乗換2回,京成本線,鬼越,鬼越,市川市鬼越１-４-５,139.937932,35.719776,京成,本線
国府台,51-60分,54分,乗換1回,京成本線,国府台,国府台,市川市市川３-３０-１,139.90322,35.736301,京成,本線
大神宮下,51-60分,54分,乗換2回,京成本線,大神宮下,大神宮下,船橋市宮本２-９-９,139.991431,35.693945,京成,本線
市川真間,51-60分,55分,乗換1回,京成本線,市川真間,市川真間,市川市真間１-１１-１,139.911717,35.73121,京成,本線
菅野,51-60分,55分,乗換2回,京成本線,菅野,菅野,市川市菅野２-７-１,139.919413,35.728272,京成,本線
京成西船,51-60分,56分,乗換2回,京成本線,京成西船,京成西船,船橋市西船４-１５-２７,139.958863,35.711627,京成,本線
京成中山,51-60分,56分,乗換2回,京成本線,京成中山,京成中山,船橋市本中山１-９-１,139.944203,35.716998,京成,本線
船橋競馬場,51-60分,56分,乗換2回,京成本線,船橋競馬場,船橋競馬場,船橋市宮本８-４２-１,139.997998,35.689606,京成,本線
谷津,51-60分,57分,乗換2回,京成本線,谷津,谷津,習志野市谷津５-４-５,140.007658,35.685257,京成,本線
京成津田沼,51-60分,60分,乗換0回,京成本線,京成津田沼,京成津田沼,習志野市津田沼３-１-１,140.024823,35.68364,京成,本線
市川塩浜,51-60分,52分,乗換1回,ＪＲ京葉線,市川塩浜,市川塩浜,市川市塩浜２丁目,139.923684,35.666554,ＪＲ,京葉線
二俣新町,51-60分,56分,乗換1回,ＪＲ京葉線,二俣新町,二俣新町,市川市二俣新町,139.959525,35.691273,ＪＲ,京葉線
南船橋,51-60分,59分,乗換1回,ＪＲ京葉線,南船橋,南船橋,船橋市若松２丁目,139.995773,35.681804,ＪＲ,京葉線
仙川,51-60分,52分,乗換1回,京王線,仙川,仙川,調布市仙川町１-４３,139.584908,35.662257,京王,線
調布,51-60分,54分,乗換1回,京王線,調布,調布,調布市布田４-３２-１,139.543988,35.652181,京王,線
つつじヶ丘,51-60分,56分,乗換1回,京王線,つつじヶ丘,つつじヶ丘,東京都調布市西つつじヶ丘三丁目35-1,139.575103,35.657936,京王,線
府中（東京都）,51-60分,59分,乗換1回,京王線,府中,府中,府中市宮町１-１-１０,139.4799,35.672245,京王,線
柴崎,51-60分,60分,乗換1回,京王線,柴崎,柴崎,調布市菊野台２-６７-１１,139.56658,35.653997,京王,線
草加,51-60分,52分,乗換1回,東武伊勢崎線〔スカイツリーライン〕,草加,草加,草加市高砂２丁目,139.803397,35.828476,東武,伊勢崎線〔スカイツリーライン〕
獨協大学前[草加松原],51-60分,55分,乗換1回,東武伊勢崎線〔スカイツリーライン〕,獨協大学前,獨協大学前,草加市松原１丁目,139.800622,35.84333,東武,伊勢崎線〔スカイツリーライン〕
新田（埼玉県）,51-60分,57分,乗換1回,東武伊勢崎線〔スカイツリーライン〕,新田,新田,草加市金明町,139.795391,35.854086,東武,伊勢崎線〔スカイツリーライン〕
蒲生,51-60分,59分,乗換1回,東武伊勢崎線〔スカイツリーライン〕,蒲生,蒲生,越谷市蒲生寿町,139.791686,35.866851,東武,伊勢崎線〔スカイツリーライン〕
新越谷,51-60分,59分,乗換2回,東武伊勢崎線〔スカイツリーライン〕,新越谷,新越谷,越谷市南越谷１丁目,139.789905,35.875186,東武,伊勢崎線〔スカイツリーライン〕
南流山,51-60分,52分,乗換1回,つくばエクスプレス,南流山,南流山,流山市大字鰭ヶ崎,139.903865,35.838035,つくばエクスプレス,
流山おおたかの森,51-60分,55分,乗換1回,つくばエクスプレス,流山おおたかの森,流山おおたかの森,流山市西初石六丁目,139.925898,35.872051,つくばエクスプレス,
流山セントラルパーク,51-60分,58分,乗換1回,つくばエクスプレス,流山セントラルパーク,流山セントラルパーク,流山市前平井,139.915223,35.854552,つくばエクスプレス,
柏の葉キャンパス,51-60分,60分,乗換1回,つくばエクスプレス,柏の葉キャンパス,柏の葉キャンパス,柏市若柴,139.952454,35.89308,つくばエクスプレス,
豊島園〔大江戸線〕,51-60分,52分,乗換1回,都営大江戸線（放射部）,豊島園,豊島園,練馬区練馬４-１６-５,139.647979,35.742054,都営,大江戸線（放射部）
練馬春日町,51-60分,54分,乗換1回,都営大江戸線（放射部）,練馬春日町,練馬春日町,練馬区春日町３-２９-２５,139.640236,35.751452,都営,大江戸線（放射部）
光が丘,51-60分,57分,乗換1回,都営大江戸線（放射部）,光が丘,光が丘,練馬区光が丘２-９-５,139.628603,35.758526,都営,大江戸線（放射部）
北戸田,51-60分,52分,乗換1回,ＪＲ埼京線,北戸田,北戸田,戸田市新曽字芦原,139.661201,35.826883,ＪＲ,埼京線
武蔵浦和,51-60分,55分,乗換1回,ＪＲ埼京線,武蔵浦和,武蔵浦和,さいたま市南区別所七丁目12-1,139.647974,35.846047,ＪＲ,埼京線
中浦和,51-60分,57分,乗換1回,ＪＲ埼京線,中浦和,中浦和,さいたま市南区鹿手袋１丁目,139.6375,35.853769,ＪＲ,埼京線
南与野,51-60分,59分,乗換1回,ＪＲ埼京線,南与野,南与野,さいたま市中央区鈴谷２丁目,139.631117,35.867456,ＪＲ,埼京線
北松戸,51-60分,52分,乗換1回,ＪＲ常磐線,北松戸,北松戸,松戸市上本郷,139.911528,35.800459,ＪＲ,常磐線
馬橋,51-60分,54分,乗換1回,ＪＲ常磐線,馬橋,馬橋,松戸市馬橋,139.917305,35.811682,ＪＲ,常磐線
新松戸,51-60分,56分,乗換1回,ＪＲ常磐線,新松戸,新松戸,松戸市幸谷,139.921076,35.825467,ＪＲ,常磐線
柏,51-60分,56分,乗換1回,ＪＲ常磐線,柏,柏,柏市柏１,139.971148,35.862316,ＪＲ,常磐線
北小金,51-60分,58分,乗換1回,ＪＲ常磐線,北小金,北小金,松戸市小金,139.931303,35.833436,ＪＲ,常磐線
和田町,51-60分,52分,乗換1回,相鉄本線,和田町,和田町,横浜市保土ヶ谷区仏向町４,139.586786,35.463597,相鉄,本線
上星川,51-60分,53分,乗換1回,相鉄本線,上星川,上星川,横浜市保土ヶ谷区上星川町２２,139.580078,35.467694,相鉄,本線
西谷,51-60分,54分,乗換1回,相鉄本線,西谷,西谷,横浜市保土ヶ谷区西谷町１１０１,139.565721,35.478092,相鉄,本線
鶴ヶ峰,51-60分,58分,乗換1回,相鉄本線,鶴ヶ峰,鶴ヶ峰,横浜市旭区鶴ヶ峰二丁目,139.549586,35.475031,相鉄,本線
二俣川,51-60分,58分,乗換1回,相鉄本線,二俣川,二俣川,横浜市旭区二俣川２-９１-７,139.532207,35.463335,相鉄,本線
新井宿,51-60分,52分,乗換1回,埼玉高速鉄道線,新井宿,新井宿,川口市新井宿１５-３,139.737908,35.842974,埼玉高速鉄道,線
戸塚安行,51-60分,55分,乗換1回,埼玉高速鉄道線,戸塚安行,戸塚安行,川口市長蔵新田３３１-１,139.753689,35.858873,埼玉高速鉄道,線
東川口,51-60分,58分,乗換1回,埼玉高速鉄道線,東川口,東川口,川口市戸塚１丁目,139.744087,35.875246,埼玉高速鉄道,線
大師前,51-60分,53分,乗換2回,東武大師線,大師前,大師前,足立区西新井１-３-１,139.781647,35.778989,東武,大師線
土呂,51-60分,53分,乗換1回,ＪＲ宇都宮線〔東北本線〕・ＪＲ上野東京ライン,土呂,土呂,さいたま市北区土呂町１丁目,139.63214,35.931997,ＪＲ,宇都宮線〔東北本線〕・ＪＲ上野東京ライン
東大宮,51-60分,56分,乗換1回,ＪＲ宇都宮線〔東北本線〕・ＪＲ上野東京ライン,東大宮,東大宮,さいたま市見沼区東大宮４丁目,139.640291,35.948751,ＪＲ,宇都宮線〔東北本線〕・ＪＲ上野東京ライン
蓮田,51-60分,60分,乗換1回,ＪＲ宇都宮線〔東北本線〕・ＪＲ上野東京ライン,蓮田,蓮田,蓮田市本町,139.653016,35.981272,ＪＲ,宇都宮線〔東北本線〕・ＪＲ上野東京ライン
東海神,51-60分,53分,乗換1回,東葉高速線,東海神,東海神,船橋市海神２-１５地下１号,139.980343,35.705888,不明,東葉高速線
飯山満,51-60分,57分,乗換1回,東葉高速線,飯山満,飯山満,船橋市飯山満町３-１０５３-５,140.0223,35.71407,不明,東葉高速線
北習志野,51-60分,59分,乗換1回,東葉高速線,北習志野,北習志野,船橋市習志野台３-１-１,140.042195,35.721328,不明,東葉高速線
武蔵小金井,51-60分,53分,乗換1回,ＪＲ中央本線（東京-塩尻）,武蔵小金井,武蔵小金井,小金井市本町６丁目,139.506483,35.701337,ＪＲ,中央本線（東京-塩尻）
国分寺,51-60分,55分,乗換1回,ＪＲ中央本線（東京-塩尻）,国分寺,国分寺,東京都国分寺市本町二丁目1-23,139.480841,35.700123,ＪＲ,中央本線（東京-塩尻）
西国分寺,51-60分,58分,乗換1回,ＪＲ中央本線（東京-塩尻）,西国分寺,西国分寺,国分寺市西恋ヶ窪２丁目,139.465994,35.699744,ＪＲ,中央本線（東京-塩尻）
国立,51-60分,60分,乗換1回,ＪＲ中央本線（東京-塩尻）,国立,国立,国立市北１丁目,139.44634,35.69923,ＪＲ,中央本線（東京-塩尻）
宮原,51-60分,54分,乗換1回,ＪＲ高崎線,宮原,宮原,さいたま市北区宮原町３丁目,139.609455,35.940256,ＪＲ,高崎線
上尾,51-60分,58分,乗換1回,ＪＲ高崎線,上尾,上尾,上尾市柏座１丁目,139.588434,35.973522,ＪＲ,高崎線
北上尾,51-60分,60分,乗換1回,ＪＲ高崎線,北上尾,北上尾,上尾市原新町,139.577223,35.985632,ＪＲ,高崎線
青葉台,51-60分,54分,乗換1回,東急田園都市線,青葉台,青葉台,横浜市青葉区青葉台１-７-３,139.517376,35.542855,東急,田園都市線
江田（神奈川県）,51-60分,57分,乗換1回,東急田園都市線,江田,江田,横浜市青葉区荏田町２３６０,139.551518,35.558671,東急,田園都市線
長津田,51-60分,58分,乗換1回,東急田園都市線,長津田,長津田,横浜市緑区長津田４丁目,139.49468,35.531698,東急,田園都市線
市が尾,51-60分,59分,乗換1回,東急田園都市線,市が尾,市が尾,横浜市青葉区市ヶ尾町１１５６-１,139.541496,35.551483,東急,田園都市線
南町田グランベリーパーク,51-60分,60分,乗換1回,東急田園都市線,南町田グランベリーパーク,南町田グランベリーパーク,町田市鶴間３-３-２,139.470318,35.511502,東急,田園都市線
中野島,51-60分,54分,乗換1回,ＪＲ南武線（川崎-立川）,中野島,中野島,川崎市多摩区中野島,139.5501,35.630135,ＪＲ,南武線（川崎-立川）
稲田堤,51-60分,56分,乗換1回,ＪＲ南武線（川崎-立川）,稲田堤,稲田堤,川崎市多摩区菅稲田堤１丁目,139.535173,35.633701,ＪＲ,南武線（川崎-立川）
矢野口,51-60分,58分,乗換1回,ＪＲ南武線（川崎-立川）,矢野口,矢野口,稲城市矢野口,139.520849,35.641305,ＪＲ,南武線（川崎-立川）
稲城長沼,51-60分,60分,乗換1回,ＪＲ南武線（川崎-立川）,稲城長沼,稲城長沼,稲城市東長沼,139.502811,35.644184,ＪＲ,南武線（川崎-立川）
藤沢,51-60分,54分,乗換1回,ＪＲ東海道本線（東京-熱海）,藤沢,藤沢,藤沢市藤沢,139.487293,35.338882,ＪＲ,東海道本線（東京-熱海）
辻堂,51-60分,58分,乗換1回,ＪＲ東海道本線（東京-熱海）,辻堂,辻堂,藤沢市辻堂,139.447106,35.336847,ＪＲ,東海道本線（東京-熱海）
豊島園〔西武線〕,51-60分,54分,乗換1回,西武豊島線,豊島園,豊島園,練馬区練馬４-１６-５,139.647979,35.742054,西武,豊島線
南部市場,51-60分,55分,乗換1回,金沢シーサイドライン,南部市場,南部市場,横浜市金沢区富岡東２-１,139.633163,35.380192,金沢シーサイドライン,
鳥浜,51-60分,57分,乗換1回,金沢シーサイドライン,鳥浜,鳥浜,横浜市金沢区並木１-１,139.641704,35.377187,金沢シーサイドライン,
並木北,51-60分,58分,乗換1回,金沢シーサイドライン,並木北,並木北,横浜市金沢区並木１-１２,139.642743,35.372015,金沢シーサイドライン,
野島公園,51-60分,58分,乗換2回,金沢シーサイドライン,野島公園,野島公園,横浜市金沢区平潟町１２７,139.631524,35.330559,金沢シーサイドライン,
海の公園南口,51-60分,60分,乗換2回,金沢シーサイドライン,海の公園南口,海の公園南口,横浜市金沢区海の公園１０,139.632096,35.337225,金沢シーサイドライン,
並木中央,51-60分,60分,乗換1回,金沢シーサイドライン,並木中央,並木中央,横浜市金沢区幸浦２-１-１,139.642945,35.365505,金沢シーサイドライン,
新船橋,51-60分,56分,乗換2回,東武野田線〔アーバンパークライン〕,新船橋,新船橋,船橋市山手１-３-１,139.979765,35.710993,東武,野田線〔アーバンパークライン〕
塚田,51-60分,58分,乗換2回,東武野田線〔アーバンパークライン〕,塚田,塚田,船橋市前貝塚町５６４,139.982859,35.722102,東武,野田線〔アーバンパークライン〕
柴又,51-60分,57分,乗換1回,京成金町線,柴又,柴又,葛飾区柴又４-８-１４,139.875188,35.756323,京成,金町線
上本郷,51-60分,58分,乗換2回,新京成電鉄,上本郷,上本郷,松戸市上本郷２６４８-１１,139.916031,35.789524,不明,新京成電鉄
松戸新田,51-60分,60分,乗換2回,新京成電鉄,松戸新田,松戸新田,松戸市松戸新田２６４-２,139.922833,35.790652,不明,新京成電鉄
船橋法典,51-60分,58分,乗換2回,ＪＲ武蔵野線（府中本町-南船橋）,船橋法典,船橋法典,船橋市藤原１丁目,139.966771,35.730435,ＪＲ,武蔵野線（府中本町-南船橋）
東浦和,51-60分,58分,乗換1回,ＪＲ武蔵野線（府中本町-南船橋）,東浦和,東浦和,さいたま市緑区大牧,139.704627,35.864079,ＪＲ,武蔵野線（府中本町-南船橋）
富士見町（神奈川県）,51-60分,58分,乗換2回,湘南モノレール,富士見町,富士見町,鎌倉市台２-１９-７,139.529277,35.345389,湘南モノレール,
湘南町屋,51-60分,60分,乗換2回,湘南モノレール,湘南町屋,湘南町屋,鎌倉市上町屋７２２,139.522666,35.337832,湘南モノレール,
新小金井,51-60分,59分,乗換2回,西武多摩川線,新小金井,新小金井,小金井市東町４-２４-１,139.526603,35.695908,西武,多摩川線
北鎌倉,51-60分,60分,乗換1回,ＪＲ横須賀線,北鎌倉,北鎌倉,鎌倉市山ノ内,139.545134,35.337198,ＪＲ,横須賀線
